<?xml version="1.0" encoding="UTF-8"?>
<kml xmlns="http://www.opengis.net/kml/2.2">
<Document>
<Placemark>
<drawOrder>4</drawOrder>
  <visibility>0</visibility>
<Style><LineStyle><color>ffffffff</color><width>1</width></LineStyle></Style>
<MultiGeometry>
  <LineString>
    <coordinates>
      -72.46565467257047,42.38424712272423
      -72.47443183913197,42.39717935172035
      -72.4832108150986,42.41011158056469
      -72.49199160166388,42.42304380925719
      -72.50077420002236,42.435976037797786
      -72.50955861136943,42.448908266186436
    </coordinates>
  </LineString>
  <LineString>
    <coordinates>
      -72.46565467257047,42.38424712272423
      -72.47443183913197,42.39717935172035
      -72.4832108150986,42.41011158056469
      -72.49199160166388,42.42304380925719
      -72.50077420002236,42.435976037797786
      -72.50955861136943,42.448908266186436
    </coordinates>
  </LineString>
  <LineString>
    <coordinates>
      -72.46565467257047,42.38424712272423
      -72.47443183913197,42.39717935172035
      -72.4832108150986,42.41011158056469
      -72.49199160166388,42.42304380925719
      -72.50077420002236,42.435976037797786
      -72.50955861136943,42.448908266186436
    </coordinates>
  </LineString>
  <LineString>
    <coordinates>
      -72.46565467257047,42.38424712272423
      -72.47443183913197,42.39717935172035
      -72.4832108150986,42.41011158056469
      -72.49199160166388,42.42304380925719
      -72.50077420002236,42.435976037797786
      -72.50955861136943,42.448908266186436
    </coordinates>
  </LineString>
  <LineString>
    <coordinates>
      -72.46565467257047,42.38424712272423
      -72.47443183913197,42.39717935172035
      -72.4832108150986,42.41011158056469
      -72.49199160166388,42.42304380925719
      -72.50077420002236,42.435976037797786
      -72.50955861136943,42.448908266186436
    </coordinates>
  </LineString>
  <LineString>
    <coordinates>
      -72.46565467257047,42.38424712272423
      -72.47443183913197,42.39717935172035
      -72.4832108150986,42.41011158056469
      -72.49199160166388,42.42304380925719
      -72.50077420002236,42.435976037797786
      -72.50955861136943,42.448908266186436
    </coordinates>
  </LineString>
  <LineString>
    <coordinates>
      -72.46565467257047,42.38424712272423
      -72.47443183913197,42.39717935172035
      -72.4832108150986,42.41011158056469
      -72.49199160166388,42.42304380925719
      -72.50077420002236,42.435976037797786
      -72.50955861136943,42.448908266186436
    </coordinates>
  </LineString>
  <LineString>
    <coordinates>
      -72.46565467257047,42.38424712272423
      -72.47443183913197,42.39717935172035
      -72.4832108150986,42.41011158056469
      -72.49199160166388,42.42304380925719
      -72.50077420002236,42.435976037797786
      -72.50955861136943,42.448908266186436
    </coordinates>
  </LineString>
  <LineString>
    <coordinates>
      -72.46565467257047,42.38424712272423
      -72.47443183913197,42.39717935172035
      -72.4832108150986,42.41011158056469
      -72.49199160166388,42.42304380925719
      -72.50077420002236,42.435976037797786
      -72.50955861136943,42.448908266186436
    </coordinates>
  </LineString>
  <LineString>
    <coordinates>
      -72.46565467257047,42.38424712272423
      -72.47443183913197,42.39717935172035
      -72.4832108150986,42.41011158056469
      -72.49199160166388,42.42304380925719
      -72.50077420002236,42.435976037797786
      -72.50955861136943,42.448908266186436
    </coordinates>
  </LineString>
  <LineString>
    <coordinates>
      -72.46565467257047,42.38424712272423
      -72.47443183913197,42.39717935172035
      -72.4832108150986,42.41011158056469
      -72.49199160166388,42.42304380925719
      -72.50077420002236,42.435976037797786
      -72.50955861136943,42.448908266186436
    </coordinates>
  </LineString>
  <LineString>
    <coordinates>
      -72.46565467257047,42.38424712272423
      -72.47443183913197,42.39717935172035
      -72.4832108150986,42.41011158056469
      -72.49199160166388,42.42304380925719
      -72.50077420002236,42.435976037797786
      -72.50955861136943,42.448908266186436
    </coordinates>
  </LineString>
  <LineString>
    <coordinates>
      -72.46565467257047,42.38424712272423
      -72.47443183913197,42.39717935172035
      -72.4832108150986,42.41011158056469
      -72.49199160166388,42.42304380925719
      -72.50077420002236,42.435976037797786
      -72.50955861136943,42.448908266186436
    </coordinates>
  </LineString>
  <LineString>
    <coordinates>
      -72.46565467257047,42.38424712272423
      -72.47443183913197,42.39717935172035
      -72.4832108150986,42.41011158056469
      -72.49199160166388,42.42304380925719
      -72.50077420002236,42.435976037797786
      -72.50955861136943,42.448908266186436
    </coordinates>
  </LineString>
  <LineString>
    <coordinates>
      -72.46565467257047,42.38424712272423
      -72.47443183913197,42.39717935172035
      -72.4832108150986,42.41011158056469
      -72.49199160166388,42.42304380925719
      -72.50077420002236,42.435976037797786
      -72.50955861136943,42.448908266186436
    </coordinates>
  </LineString>
  <LineString>
    <coordinates>
      -72.46565467257047,42.38424712272423
      -72.47443183913197,42.39717935172035
      -72.4832108150986,42.41011158056469
      -72.49199160166388,42.42304380925719
      -72.50077420002236,42.435976037797786
      -72.50955861136943,42.448908266186436
    </coordinates>
  </LineString>
  <LineString>
    <coordinates>
      -72.46565467257047,42.38424712272423
      -72.47443183913197,42.39717935172035
      -72.4832108150986,42.41011158056469
      -72.49199160166388,42.42304380925719
      -72.50077420002236,42.435976037797786
      -72.50955861136943,42.448908266186436
    </coordinates>
  </LineString>
  <LineString>
    <coordinates>
      -72.46565467257047,42.38424712272423
      -72.47443183913197,42.39717935172035
      -72.4832108150986,42.41011158056469
      -72.49199160166388,42.42304380925719
      -72.50077420002236,42.435976037797786
      -72.50955861136943,42.448908266186436
    </coordinates>
  </LineString>
  <LineString>
    <coordinates>
      -72.46565467257047,42.38424712272423
      -72.47443183913197,42.39717935172035
      -72.4832108150986,42.41011158056469
      -72.49199160166388,42.42304380925719
      -72.50077420002236,42.435976037797786
      -72.50955861136943,42.448908266186436
    </coordinates>
  </LineString>
  <LineString>
    <coordinates>
      -72.46565467257047,42.38424712272423
      -72.47443183913197,42.39717935172035
      -72.4832108150986,42.41011158056469
      -72.49199160166388,42.42304380925719
      -72.50077420002236,42.435976037797786
      -72.50955861136943,42.448908266186436
    </coordinates>
  </LineString>
  <LineString>
    <coordinates>
      -72.46565467257047,42.38424712272423
      -72.47443183913197,42.39717935172035
      -72.4832108150986,42.41011158056469
      -72.49199160166388,42.42304380925719
      -72.50077420002236,42.435976037797786
      -72.50955861136943,42.448908266186436
    </coordinates>
  </LineString>
  <LineString>
    <coordinates>
      -72.46565467257047,42.38424712272423
      -72.47443183913197,42.39717935172035
      -72.4832108150986,42.41011158056469
      -72.49199160166388,42.42304380925719
      -72.50077420002236,42.435976037797786
      -72.50955861136943,42.448908266186436
    </coordinates>
  </LineString>
  <LineString>
    <coordinates>
      -72.46565467257047,42.38424712272423
      -72.47443183913197,42.39717935172035
      -72.4832108150986,42.41011158056469
      -72.49199160166388,42.42304380925719
      -72.50077420002236,42.435976037797786
      -72.50955861136943,42.448908266186436
    </coordinates>
  </LineString>
  <LineString>
    <coordinates>
      -72.46565467257047,42.38424712272423
      -72.47443183913197,42.39717935172035
      -72.4832108150986,42.41011158056469
      -72.49199160166388,42.42304380925719
      -72.50077420002236,42.435976037797786
      -72.50955861136943,42.448908266186436
    </coordinates>
  </LineString>
  <LineString>
    <coordinates>
      -72.46565467257047,42.38424712272423
      -72.47443183913197,42.39717935172035
      -72.4832108150986,42.41011158056469
      -72.49199160166388,42.42304380925719
      -72.50077420002236,42.435976037797786
      -72.50955861136943,42.448908266186436
    </coordinates>
  </LineString>
  <LineString>
    <coordinates>
      -72.46565467257047,42.38424712272423
      -72.47443183913197,42.39717935172035
      -72.4832108150986,42.41011158056469
      -72.49199160166388,42.42304380925719
      -72.50077420002236,42.435976037797786
      -72.50955861136943,42.448908266186436
    </coordinates>
  </LineString>
  <LineString>
    <coordinates>
      -72.46565467257047,42.38424712272423
      -72.47443183913197,42.39717935172035
      -72.4832108150986,42.41011158056469
      -72.49199160166388,42.42304380925719
      -72.50077420002236,42.435976037797786
      -72.50955861136943,42.448908266186436
    </coordinates>
  </LineString>
  <LineString>
    <coordinates>
      -72.46565467257047,42.38424712272423
      -72.47443183913197,42.39717935172035
      -72.4832108150986,42.41011158056469
      -72.49199160166388,42.42304380925719
      -72.50077420002236,42.435976037797786
      -72.50955861136943,42.448908266186436
    </coordinates>
  </LineString>
  <LineString>
    <coordinates>
      -72.46565467257047,42.38424712272423
      -72.47443183913197,42.39717935172035
      -72.4832108150986,42.41011158056469
      -72.49199160166388,42.42304380925719
      -72.50077420002236,42.435976037797786
      -72.50955861136943,42.448908266186436
    </coordinates>
  </LineString>
  <LineString>
    <coordinates>
      -72.46565467257047,42.38424712272423
      -72.47443183913197,42.39717935172035
      -72.4832108150986,42.41011158056469
      -72.49199160166388,42.42304380925719
      -72.50077420002236,42.435976037797786
      -72.50955861136943,42.448908266186436
    </coordinates>
  </LineString>
  <LineString>
    <coordinates>
      -72.46565467257047,42.38424712272423
      -72.47443183913197,42.39717935172035
      -72.4832108150986,42.41011158056469
      -72.49199160166388,42.42304380925719
      -72.50077420002236,42.435976037797786
      -72.50955861136943,42.448908266186436
    </coordinates>
  </LineString>
  <LineString>
    <coordinates>
      -72.46565467257047,42.38424712272423
      -72.47443183913197,42.39717935172035
      -72.4832108150986,42.41011158056469
      -72.49199160166388,42.42304380925719
      -72.50077420002236,42.435976037797786
      -72.50955861136943,42.448908266186436
    </coordinates>
  </LineString>
  <LineString>
    <coordinates>
      -72.46565467257047,42.38424712272423
      -72.47443183913197,42.39717935172035
      -72.4832108150986,42.41011158056469
      -72.49199160166388,42.42304380925719
      -72.50077420002236,42.435976037797786
      -72.50955861136943,42.448908266186436
    </coordinates>
  </LineString>
  <LineString>
    <coordinates>
      -72.46565467257047,42.38424712272423
      -72.47443183913197,42.39717935172035
      -72.4832108150986,42.41011158056469
      -72.49199160166388,42.42304380925719
      -72.50077420002236,42.435976037797786
      -72.50955861136943,42.448908266186436
    </coordinates>
  </LineString>
  <LineString>
    <coordinates>
      -72.46565467257047,42.38424712272423
      -72.47443183913197,42.39717935172035
      -72.4832108150986,42.41011158056469
      -72.49199160166388,42.42304380925719
      -72.50077420002236,42.435976037797786
      -72.50955861136943,42.448908266186436
    </coordinates>
  </LineString>
  <LineString>
    <coordinates>
      -72.46565467257047,42.38424712272423
      -72.47443183913197,42.39717935172035
      -72.4832108150986,42.41011158056469
      -72.49199160166388,42.42304380925719
      -72.50077420002236,42.435976037797786
      -72.50955861136943,42.448908266186436
    </coordinates>
  </LineString>
  <LineString>
    <coordinates>
      -72.46565467257047,42.38424712272423
      -72.47443183913197,42.39717935172035
      -72.4832108150986,42.41011158056469
      -72.49199160166388,42.42304380925719
      -72.50077420002236,42.435976037797786
      -72.50955861136943,42.448908266186436
    </coordinates>
  </LineString>
  <LineString>
    <coordinates>
      -72.46565467257047,42.38424712272423
      -72.47443183913197,42.39717935172035
      -72.4832108150986,42.41011158056469
      -72.49199160166388,42.42304380925719
      -72.50077420002236,42.435976037797786
      -72.50955861136943,42.448908266186436
    </coordinates>
  </LineString>
  <LineString>
    <coordinates>
      -72.46565467257047,42.38424712272423
      -72.47443183913197,42.39717935172035
      -72.4832108150986,42.41011158056469
      -72.49199160166388,42.42304380925719
      -72.50077420002236,42.435976037797786
      -72.50955861136943,42.448908266186436
    </coordinates>
  </LineString>
  <LineString>
    <coordinates>
      -72.46565467257047,42.38424712272423
      -72.47443183913197,42.39717935172035
      -72.4832108150986,42.41011158056469
      -72.49199160166388,42.42304380925719
      -72.50077420002236,42.435976037797786
      -72.50955861136943,42.448908266186436
    </coordinates>
  </LineString>
  <LineString>
    <coordinates>
      -72.46565467257047,42.38424712272423
      -72.47443183913197,42.39717935172035
      -72.4832108150986,42.41011158056469
      -72.49199160166388,42.42304380925719
      -72.50077420002236,42.435976037797786
      -72.50955861136943,42.448908266186436
    </coordinates>
  </LineString>
  <LineString>
    <coordinates>
      -72.46565467257047,42.38424712272423
      -72.47443183913197,42.39717935172035
      -72.4832108150986,42.41011158056469
      -72.49199160166388,42.42304380925719
      -72.50077420002236,42.435976037797786
      -72.50955861136943,42.448908266186436
    </coordinates>
  </LineString>
  <LineString>
    <coordinates>
      -72.46565467257047,42.38424712272423
      -72.47443183913197,42.39717935172035
      -72.4832108150986,42.41011158056469
      -72.49199160166388,42.42304380925719
      -72.50077420002236,42.435976037797786
      -72.50955861136943,42.448908266186436
    </coordinates>
  </LineString>
  <LineString>
    <coordinates>
      -72.46565467257047,42.38424712272423
      -72.47443183913197,42.39717935172035
      -72.4832108150986,42.41011158056469
      -72.49199160166388,42.42304380925719
      -72.50077420002236,42.435976037797786
      -72.50955861136943,42.448908266186436
    </coordinates>
  </LineString>
  <LineString>
    <coordinates>
      -72.46565467257047,42.38424712272423
      -72.47443183913197,42.39717935172035
      -72.4832108150986,42.41011158056469
      -72.49199160166388,42.42304380925719
      -72.50077420002236,42.435976037797786
      -72.50955861136943,42.448908266186436
    </coordinates>
  </LineString>
  <LineString>
    <coordinates>
      -72.46565467257047,42.38424712272423
      -72.47443183913197,42.39717935172035
      -72.4832108150986,42.41011158056469
      -72.49199160166388,42.42304380925719
      -72.50077420002236,42.435976037797786
      -72.50955861136943,42.448908266186436
    </coordinates>
  </LineString>
  <LineString>
    <coordinates>
      -72.46565467257047,42.38424712272423
      -72.47443183913197,42.39717935172035
      -72.4832108150986,42.41011158056469
      -72.49199160166388,42.42304380925719
      -72.50077420002236,42.435976037797786
      -72.50955861136943,42.448908266186436
    </coordinates>
  </LineString>
  <LineString>
    <coordinates>
      -72.46565467257047,42.38424712272423
      -72.47443183913197,42.39717935172035
      -72.4832108150986,42.41011158056469
      -72.49199160166388,42.42304380925719
      -72.50077420002236,42.435976037797786
      -72.50955861136943,42.448908266186436
    </coordinates>
  </LineString>
  <LineString>
    <coordinates>
      -72.46565467257047,42.38424712272423
      -72.47443183913197,42.39717935172035
      -72.4832108150986,42.41011158056469
      -72.49199160166388,42.42304380925719
      -72.50077420002236,42.435976037797786
      -72.50955861136943,42.448908266186436
    </coordinates>
  </LineString>
  <LineString>
    <coordinates>
      -72.46565467257047,42.38424712272423
      -72.47443183913197,42.39717935172035
      -72.4832108150986,42.41011158056469
      -72.49199160166388,42.42304380925719
      -72.50077420002236,42.435976037797786
      -72.50955861136943,42.448908266186436
    </coordinates>
  </LineString>
  <LineString>
    <coordinates>
      -72.46565467257047,42.38424712272423
      -72.47443183913197,42.39717935172035
      -72.4832108150986,42.41011158056469
      -72.49199160166388,42.42304380925719
      -72.50077420002236,42.435976037797786
      -72.50955861136943,42.448908266186436
    </coordinates>
  </LineString>
  <LineString>
    <coordinates>
      -72.46565467257047,42.38424712272423
      -72.47443183913197,42.39717935172035
      -72.4832108150986,42.41011158056469
      -72.49199160166388,42.42304380925719
      -72.50077420002236,42.435976037797786
      -72.50955861136943,42.448908266186436
    </coordinates>
  </LineString>
  <LineString>
    <coordinates>
      -72.46565467257047,42.38424712272423
      -72.47443183913197,42.39717935172035
      -72.4832108150986,42.41011158056469
      -72.49199160166388,42.42304380925719
      -72.50077420002236,42.435976037797786
      -72.50955861136943,42.448908266186436
    </coordinates>
  </LineString>
  <LineString>
    <coordinates>
      -72.46565467257047,42.38424712272423
      -72.47443183913197,42.39717935172035
      -72.4832108150986,42.41011158056469
      -72.49199160166388,42.42304380925719
      -72.50077420002236,42.435976037797786
      -72.50955861136943,42.448908266186436
    </coordinates>
  </LineString>
  <LineString>
    <coordinates>
      -72.46565467257047,42.38424712272423
      -72.47443183913197,42.39717935172035
      -72.4832108150986,42.41011158056469
      -72.49199160166388,42.42304380925719
      -72.50077420002236,42.435976037797786
      -72.50955861136943,42.448908266186436
    </coordinates>
  </LineString>
  <LineString>
    <coordinates>
      -72.46565467257047,42.38424712272423
      -72.47443183913197,42.39717935172035
      -72.4832108150986,42.41011158056469
      -72.49199160166388,42.42304380925719
      -72.50077420002236,42.435976037797786
      -72.50955861136943,42.448908266186436
    </coordinates>
  </LineString>
  <LineString>
    <coordinates>
      -72.46565467257047,42.38424712272423
      -72.47443183913197,42.39717935172035
      -72.4832108150986,42.41011158056469
      -72.49199160166388,42.42304380925719
      -72.50077420002236,42.435976037797786
      -72.50955861136943,42.448908266186436
    </coordinates>
  </LineString>
  <LineString>
    <coordinates>
      -72.46565467257047,42.38424712272423
      -72.47443183913197,42.39717935172035
      -72.4832108150986,42.41011158056469
      -72.49199160166388,42.42304380925719
      -72.50077420002236,42.435976037797786
      -72.50955861136943,42.448908266186436
    </coordinates>
  </LineString>
  <LineString>
    <coordinates>
      -72.46565467257047,42.38424712272423
      -72.47443183913197,42.39717935172035
      -72.4832108150986,42.41011158056469
      -72.49199160166388,42.42304380925719
      -72.50077420002236,42.435976037797786
      -72.50955861136943,42.448908266186436
    </coordinates>
  </LineString>
  <LineString>
    <coordinates>
      -72.46565467257047,42.38424712272423
      -72.47443183913197,42.39717935172035
      -72.4832108150986,42.41011158056469
      -72.49199160166388,42.42304380925719
      -72.50077420002236,42.435976037797786
      -72.50955861136943,42.448908266186436
    </coordinates>
  </LineString>
  <LineString>
    <coordinates>
      -72.46565467257047,42.38424712272423
      -72.47443183913197,42.39717935172035
      -72.4832108150986,42.41011158056469
      -72.49199160166388,42.42304380925719
      -72.50077420002236,42.435976037797786
      -72.50955861136943,42.448908266186436
    </coordinates>
  </LineString>
  <LineString>
    <coordinates>
      -72.46565467257047,42.38424712272423
      -72.47443183913197,42.39717935172035
      -72.4832108150986,42.41011158056469
      -72.49199160166388,42.42304380925719
      -72.50077420002236,42.435976037797786
      -72.50955861136943,42.448908266186436
    </coordinates>
  </LineString>
  <LineString>
    <coordinates>
      -72.46565467257047,42.38424712272423
      -72.47443183913197,42.39717935172035
      -72.4832108150986,42.41011158056469
      -72.49199160166388,42.42304380925719
      -72.50077420002236,42.435976037797786
      -72.50955861136943,42.448908266186436
    </coordinates>
  </LineString>
  <LineString>
    <coordinates>
      -72.46565467257047,42.38424712272423
      -72.47443183913197,42.39717935172035
      -72.4832108150986,42.41011158056469
      -72.49199160166388,42.42304380925719
      -72.50077420002236,42.435976037797786
      -72.50955861136943,42.448908266186436
    </coordinates>
  </LineString>
  <LineString>
    <coordinates>
      -72.46565467257047,42.38424712272423
      -72.47443183913197,42.39717935172035
      -72.4832108150986,42.41011158056469
      -72.49199160166388,42.42304380925719
      -72.50077420002236,42.435976037797786
      -72.50955861136943,42.448908266186436
    </coordinates>
  </LineString>
  <LineString>
    <coordinates>
      -72.46565467257047,42.38424712272423
      -72.47443183913197,42.39717935172035
      -72.4832108150986,42.41011158056469
      -72.49199160166388,42.42304380925719
      -72.50077420002236,42.435976037797786
      -72.50955861136943,42.448908266186436
    </coordinates>
  </LineString>
  <LineString>
    <coordinates>
      -72.46565467257047,42.38424712272423
      -72.47443183913197,42.39717935172035
      -72.4832108150986,42.41011158056469
      -72.49199160166388,42.42304380925719
      -72.50077420002236,42.435976037797786
      -72.50955861136943,42.448908266186436
    </coordinates>
  </LineString>
  <LineString>
    <coordinates>
      -72.46565467257047,42.38424712272423
      -72.47443183913197,42.39717935172035
      -72.4832108150986,42.41011158056469
      -72.49199160166388,42.42304380925719
      -72.50077420002236,42.435976037797786
      -72.50955861136943,42.448908266186436
    </coordinates>
  </LineString>
  <LineString>
    <coordinates>
      -72.46565467257047,42.38424712272423
      -72.47443183913197,42.39717935172035
      -72.4832108150986,42.41011158056469
      -72.49199160166388,42.42304380925719
      -72.50077420002236,42.435976037797786
      -72.50955861136943,42.448908266186436
    </coordinates>
  </LineString>
  <LineString>
    <coordinates>
      -72.46565467257047,42.38424712272423
      -72.47443183913197,42.39717935172035
      -72.4832108150986,42.41011158056469
      -72.49199160166388,42.42304380925719
      -72.50077420002236,42.435976037797786
      -72.50955861136943,42.448908266186436
    </coordinates>
  </LineString>
  <LineString>
    <coordinates>
      -72.46565467257047,42.38424712272423
      -72.47443183913197,42.39717935172035
      -72.4832108150986,42.41011158056469
      -72.49199160166388,42.42304380925719
      -72.50077420002236,42.435976037797786
      -72.50955861136943,42.448908266186436
    </coordinates>
  </LineString>
  <LineString>
    <coordinates>
      -72.46565467257047,42.38424712272423
      -72.47443183913197,42.39717935172035
      -72.4832108150986,42.41011158056469
      -72.49199160166388,42.42304380925719
      -72.50077420002236,42.435976037797786
      -72.50955861136943,42.448908266186436
    </coordinates>
  </LineString>
  <LineString>
    <coordinates>
      -72.46565467257047,42.38424712272423
      -72.47443183913197,42.39717935172035
      -72.4832108150986,42.41011158056469
      -72.49199160166388,42.42304380925719
      -72.50077420002236,42.435976037797786
      -72.50955861136943,42.448908266186436
    </coordinates>
  </LineString>
  <LineString>
    <coordinates>
      -72.46565467257047,42.38424712272423
      -72.47443183913197,42.39717935172035
      -72.4832108150986,42.41011158056469
      -72.49199160166388,42.42304380925719
      -72.50077420002236,42.435976037797786
      -72.50955861136943,42.448908266186436
    </coordinates>
  </LineString>
  <LineString>
    <coordinates>
      -72.46565467257047,42.38424712272423
      -72.47443183913197,42.39717935172035
      -72.4832108150986,42.41011158056469
      -72.49199160166388,42.42304380925719
      -72.50077420002236,42.435976037797786
      -72.50955861136943,42.448908266186436
    </coordinates>
  </LineString>
  <LineString>
    <coordinates>
      -72.46565467257047,42.38424712272423
      -72.47443183913197,42.39717935172035
      -72.4832108150986,42.41011158056469
      -72.49199160166388,42.42304380925719
      -72.50077420002236,42.435976037797786
      -72.50955861136943,42.448908266186436
    </coordinates>
  </LineString>
  <LineString>
    <coordinates>
      -72.46565467257047,42.38424712272423
      -72.47443183913197,42.39717935172035
      -72.4832108150986,42.41011158056469
      -72.49199160166388,42.42304380925719
      -72.50077420002236,42.435976037797786
      -72.50955861136943,42.448908266186436
    </coordinates>
  </LineString>
  <LineString>
    <coordinates>
      -72.46565467257047,42.38424712272423
      -72.47443183913197,42.39717935172035
      -72.4832108150986,42.41011158056469
      -72.49199160166388,42.42304380925719
      -72.50077420002236,42.435976037797786
      -72.50955861136943,42.448908266186436
    </coordinates>
  </LineString>
  <LineString>
    <coordinates>
      -72.46565467257047,42.38424712272423
      -72.47443183913197,42.39717935172035
      -72.4832108150986,42.41011158056469
      -72.49199160166388,42.42304380925719
      -72.50077420002236,42.435976037797786
      -72.50955861136943,42.448908266186436
    </coordinates>
  </LineString>
  <LineString>
    <coordinates>
      -72.46565467257047,42.38424712272423
      -72.47443183913197,42.39717935172035
      -72.4832108150986,42.41011158056469
      -72.49199160166388,42.42304380925719
      -72.50077420002236,42.435976037797786
      -72.50955861136943,42.448908266186436
    </coordinates>
  </LineString>
  <LineString>
    <coordinates>
      -72.46565467257047,42.38424712272423
      -72.47443183913197,42.39717935172035
      -72.4832108150986,42.41011158056469
      -72.49199160166388,42.42304380925719
      -72.50077420002236,42.435976037797786
      -72.50955861136943,42.448908266186436
    </coordinates>
  </LineString>
  <LineString>
    <coordinates>
      -72.46565467257047,42.38424712272423
      -72.47443183913197,42.39717935172035
      -72.4832108150986,42.41011158056469
      -72.49199160166388,42.42304380925719
      -72.50077420002236,42.435976037797786
      -72.50955861136943,42.448908266186436
    </coordinates>
  </LineString>
  <LineString>
    <coordinates>
      -72.46565467257047,42.38424712272423
      -72.47443183913197,42.39717935172035
      -72.4832108150986,42.41011158056469
      -72.49199160166388,42.42304380925719
      -72.50077420002236,42.435976037797786
      -72.50955861136943,42.448908266186436
    </coordinates>
  </LineString>
  <LineString>
    <coordinates>
      -72.46565467257047,42.38424712272423
      -72.47443183913197,42.39717935172035
      -72.4832108150986,42.41011158056469
      -72.49199160166388,42.42304380925719
      -72.50077420002236,42.435976037797786
      -72.50955861136943,42.448908266186436
    </coordinates>
  </LineString>
  <LineString>
    <coordinates>
      -72.46565467257047,42.38424712272423
      -72.47443183913197,42.39717935172035
      -72.4832108150986,42.41011158056469
      -72.49199160166388,42.42304380925719
      -72.50077420002236,42.435976037797786
      -72.50955861136943,42.448908266186436
    </coordinates>
  </LineString>
  <LineString>
    <coordinates>
      -72.46565467257047,42.38424712272423
      -72.47443183913197,42.39717935172035
      -72.4832108150986,42.41011158056469
      -72.49199160166388,42.42304380925719
      -72.50077420002236,42.435976037797786
      -72.50955861136943,42.448908266186436
    </coordinates>
  </LineString>
  <LineString>
    <coordinates>
      -72.46565467257047,42.38424712272423
      -72.47443183913197,42.39717935172035
      -72.4832108150986,42.41011158056469
      -72.49199160166388,42.42304380925719
      -72.50077420002236,42.435976037797786
      -72.50955861136943,42.448908266186436
    </coordinates>
  </LineString>
  <LineString>
    <coordinates>
      -72.46565467257047,42.38424712272423
      -72.47443183913197,42.39717935172035
      -72.4832108150986,42.41011158056469
      -72.49199160166388,42.42304380925719
      -72.50077420002236,42.435976037797786
      -72.50955861136943,42.448908266186436
    </coordinates>
  </LineString>
  <LineString>
    <coordinates>
      -72.46565467257047,42.38424712272423
      -72.47443183913197,42.39717935172035
      -72.4832108150986,42.41011158056469
      -72.49199160166388,42.42304380925719
      -72.50077420002236,42.435976037797786
      -72.50955861136943,42.448908266186436
    </coordinates>
  </LineString>
  <LineString>
    <coordinates>
      -72.46565467257047,42.38424712272423
      -72.47443183913197,42.39717935172035
      -72.4832108150986,42.41011158056469
      -72.49199160166388,42.42304380925719
      -72.50077420002236,42.435976037797786
      -72.50955861136943,42.448908266186436
    </coordinates>
  </LineString>
  <LineString>
    <coordinates>
      -72.46565467257047,42.38424712272423
      -72.47443183913197,42.39717935172035
      -72.4832108150986,42.41011158056469
      -72.49199160166388,42.42304380925719
      -72.50077420002236,42.435976037797786
      -72.50955861136943,42.448908266186436
    </coordinates>
  </LineString>
  <LineString>
    <coordinates>
      -72.46565467257047,42.38424712272423
      -72.47443183913197,42.39717935172035
      -72.4832108150986,42.41011158056469
      -72.49199160166388,42.42304380925719
      -72.50077420002236,42.435976037797786
      -72.50955861136943,42.448908266186436
    </coordinates>
  </LineString>
  <LineString>
    <coordinates>
      -72.46565467257047,42.38424712272423
      -72.47443183913197,42.39717935172035
      -72.4832108150986,42.41011158056469
      -72.49199160166388,42.42304380925719
      -72.50077420002236,42.435976037797786
      -72.50955861136943,42.448908266186436
    </coordinates>
  </LineString>
  <LineString>
    <coordinates>
      -72.46565467257047,42.38424712272423
      -72.47443183913197,42.39717935172035
      -72.4832108150986,42.41011158056469
      -72.49199160166388,42.42304380925719
      -72.50077420002236,42.435976037797786
      -72.50955861136943,42.448908266186436
    </coordinates>
  </LineString>
  <LineString>
    <coordinates>
      -72.46565467257047,42.38424712272423
      -72.47443183913197,42.39717935172035
      -72.4832108150986,42.41011158056469
      -72.49199160166388,42.42304380925719
      -72.50077420002236,42.435976037797786
      -72.50955861136943,42.448908266186436
    </coordinates>
  </LineString>
  <LineString>
    <coordinates>
      -72.46565467257047,42.38424712272423
      -72.47443183913197,42.39717935172035
      -72.4832108150986,42.41011158056469
      -72.49199160166388,42.42304380925719
      -72.50077420002236,42.435976037797786
      -72.50955861136943,42.448908266186436
    </coordinates>
  </LineString>
  <LineString>
    <coordinates>
      -72.46565467257047,42.38424712272423
      -72.47443183913197,42.39717935172035
      -72.4832108150986,42.41011158056469
      -72.49199160166388,42.42304380925719
      -72.50077420002236,42.435976037797786
      -72.50955861136943,42.448908266186436
    </coordinates>
  </LineString>
  <LineString>
    <coordinates>
      -72.46565467257047,42.38424712272423
      -72.47443183913197,42.39717935172035
      -72.4832108150986,42.41011158056469
      -72.49199160166388,42.42304380925719
      -72.50077420002236,42.435976037797786
      -72.50955861136943,42.448908266186436
    </coordinates>
  </LineString>
  <LineString>
    <coordinates>
      -72.46565467257047,42.38424712272423
      -72.47443183913197,42.39717935172035
      -72.4832108150986,42.41011158056469
      -72.49199160166388,42.42304380925719
      -72.50077420002236,42.435976037797786
      -72.50955861136943,42.448908266186436
    </coordinates>
  </LineString>
  <LineString>
    <coordinates>
      -72.46565467257047,42.38424712272423
      -72.47443183913197,42.39717935172035
      -72.4832108150986,42.41011158056469
      -72.49199160166388,42.42304380925719
      -72.50077420002236,42.435976037797786
      -72.50955861136943,42.448908266186436
    </coordinates>
  </LineString>
</MultiGeometry></Placemark>
</Document>
</kml>
