<?xml version="1.0" encoding="UTF-8"?>
<kml xmlns="http://www.opengis.net/kml/2.2">
<Document>
<Placemark>
<drawOrder>4</drawOrder>
  <visibility>0</visibility>
<Style><LineStyle><color>ffffffff</color><width>1</width></LineStyle></Style>
<MultiGeometry>
  <LineString>
    <coordinates>
      -72.46070548097848,42.40209671443316
      -72.46948514526814,42.415028943219774
      -72.47826662061057,42.42796117185453
      -72.4870499082006,42.44089340033735
      -72.495835009234,42.4538256286682
      -72.50462192490754,42.466757856846996
    </coordinates>
  </LineString>
  <LineString>
    <coordinates>
      -72.46070548097848,42.40209671443316
      -72.46948514526814,42.415028943219774
      -72.47826662061057,42.42796117185453
      -72.4870499082006,42.44089340033735
      -72.495835009234,42.4538256286682
      -72.50462192490754,42.466757856846996
    </coordinates>
  </LineString>
  <LineString>
    <coordinates>
      -72.46070548097848,42.40209671443316
      -72.46948514526814,42.415028943219774
      -72.47826662061057,42.42796117185453
      -72.4870499082006,42.44089340033735
      -72.495835009234,42.4538256286682
      -72.50462192490754,42.466757856846996
    </coordinates>
  </LineString>
  <LineString>
    <coordinates>
      -72.46070548097848,42.40209671443316
      -72.46948514526814,42.415028943219774
      -72.47826662061057,42.42796117185453
      -72.4870499082006,42.44089340033735
      -72.495835009234,42.4538256286682
      -72.50462192490754,42.466757856846996
    </coordinates>
  </LineString>
  <LineString>
    <coordinates>
      -72.46070548097848,42.40209671443316
      -72.46948514526814,42.415028943219774
      -72.47826662061057,42.42796117185453
      -72.4870499082006,42.44089340033735
      -72.495835009234,42.4538256286682
      -72.50462192490754,42.466757856846996
    </coordinates>
  </LineString>
  <LineString>
    <coordinates>
      -72.46070548097848,42.40209671443316
      -72.46948514526814,42.415028943219774
      -72.47826662061057,42.42796117185453
      -72.4870499082006,42.44089340033735
      -72.495835009234,42.4538256286682
      -72.50462192490754,42.466757856846996
    </coordinates>
  </LineString>
  <LineString>
    <coordinates>
      -72.46070548097848,42.40209671443316
      -72.46948514526814,42.415028943219774
      -72.47826662061057,42.42796117185453
      -72.4870499082006,42.44089340033735
      -72.495835009234,42.4538256286682
      -72.50462192490754,42.466757856846996
    </coordinates>
  </LineString>
  <LineString>
    <coordinates>
      -72.46070548097848,42.40209671443316
      -72.46948514526814,42.415028943219774
      -72.47826662061057,42.42796117185453
      -72.4870499082006,42.44089340033735
      -72.495835009234,42.4538256286682
      -72.50462192490754,42.466757856846996
    </coordinates>
  </LineString>
  <LineString>
    <coordinates>
      -72.46070548097848,42.40209671443316
      -72.46948514526814,42.415028943219774
      -72.47826662061057,42.42796117185453
      -72.4870499082006,42.44089340033735
      -72.495835009234,42.4538256286682
      -72.50462192490754,42.466757856846996
    </coordinates>
  </LineString>
  <LineString>
    <coordinates>
      -72.46070548097848,42.40209671443316
      -72.46948514526814,42.415028943219774
      -72.47826662061057,42.42796117185453
      -72.4870499082006,42.44089340033735
      -72.495835009234,42.4538256286682
      -72.50462192490754,42.466757856846996
    </coordinates>
  </LineString>
  <LineString>
    <coordinates>
      -72.46070548097848,42.40209671443316
      -72.46948514526814,42.415028943219774
      -72.47826662061057,42.42796117185453
      -72.4870499082006,42.44089340033735
      -72.495835009234,42.4538256286682
      -72.50462192490754,42.466757856846996
    </coordinates>
  </LineString>
  <LineString>
    <coordinates>
      -72.46070548097848,42.40209671443316
      -72.46948514526814,42.415028943219774
      -72.47826662061057,42.42796117185453
      -72.4870499082006,42.44089340033735
      -72.495835009234,42.4538256286682
      -72.50462192490754,42.466757856846996
    </coordinates>
  </LineString>
  <LineString>
    <coordinates>
      -72.46070548097848,42.40209671443316
      -72.46948514526814,42.415028943219774
      -72.47826662061057,42.42796117185453
      -72.4870499082006,42.44089340033735
      -72.495835009234,42.4538256286682
      -72.50462192490754,42.466757856846996
    </coordinates>
  </LineString>
  <LineString>
    <coordinates>
      -72.46070548097848,42.40209671443316
      -72.46948514526814,42.415028943219774
      -72.47826662061057,42.42796117185453
      -72.4870499082006,42.44089340033735
      -72.495835009234,42.4538256286682
      -72.50462192490754,42.466757856846996
    </coordinates>
  </LineString>
  <LineString>
    <coordinates>
      -72.46070548097848,42.40209671443316
      -72.46948514526814,42.415028943219774
      -72.47826662061057,42.42796117185453
      -72.4870499082006,42.44089340033735
      -72.495835009234,42.4538256286682
      -72.50462192490754,42.466757856846996
    </coordinates>
  </LineString>
  <LineString>
    <coordinates>
      -72.46070548097848,42.40209671443316
      -72.46948514526814,42.415028943219774
      -72.47826662061057,42.42796117185453
      -72.4870499082006,42.44089340033735
      -72.495835009234,42.4538256286682
      -72.50462192490754,42.466757856846996
    </coordinates>
  </LineString>
  <LineString>
    <coordinates>
      -72.46070548097848,42.40209671443316
      -72.46948514526814,42.415028943219774
      -72.47826662061057,42.42796117185453
      -72.4870499082006,42.44089340033735
      -72.495835009234,42.4538256286682
      -72.50462192490754,42.466757856846996
    </coordinates>
  </LineString>
  <LineString>
    <coordinates>
      -72.46070548097848,42.40209671443316
      -72.46948514526814,42.415028943219774
      -72.47826662061057,42.42796117185453
      -72.4870499082006,42.44089340033735
      -72.495835009234,42.4538256286682
      -72.50462192490754,42.466757856846996
    </coordinates>
  </LineString>
  <LineString>
    <coordinates>
      -72.46070548097848,42.40209671443316
      -72.46948514526814,42.415028943219774
      -72.47826662061057,42.42796117185453
      -72.4870499082006,42.44089340033735
      -72.495835009234,42.4538256286682
      -72.50462192490754,42.466757856846996
    </coordinates>
  </LineString>
  <LineString>
    <coordinates>
      -72.46070548097848,42.40209671443316
      -72.46948514526814,42.415028943219774
      -72.47826662061057,42.42796117185453
      -72.4870499082006,42.44089340033735
      -72.495835009234,42.4538256286682
      -72.50462192490754,42.466757856846996
    </coordinates>
  </LineString>
  <LineString>
    <coordinates>
      -72.46070548097848,42.40209671443316
      -72.46948514526814,42.415028943219774
      -72.47826662061057,42.42796117185453
      -72.4870499082006,42.44089340033735
      -72.495835009234,42.4538256286682
      -72.50462192490754,42.466757856846996
    </coordinates>
  </LineString>
  <LineString>
    <coordinates>
      -72.46070548097848,42.40209671443316
      -72.46948514526814,42.415028943219774
      -72.47826662061057,42.42796117185453
      -72.4870499082006,42.44089340033735
      -72.495835009234,42.4538256286682
      -72.50462192490754,42.466757856846996
    </coordinates>
  </LineString>
  <LineString>
    <coordinates>
      -72.46070548097848,42.40209671443316
      -72.46948514526814,42.415028943219774
      -72.47826662061057,42.42796117185453
      -72.4870499082006,42.44089340033735
      -72.495835009234,42.4538256286682
      -72.50462192490754,42.466757856846996
    </coordinates>
  </LineString>
  <LineString>
    <coordinates>
      -72.46070548097848,42.40209671443316
      -72.46948514526814,42.415028943219774
      -72.47826662061057,42.42796117185453
      -72.4870499082006,42.44089340033735
      -72.495835009234,42.4538256286682
      -72.50462192490754,42.466757856846996
    </coordinates>
  </LineString>
  <LineString>
    <coordinates>
      -72.46070548097848,42.40209671443316
      -72.46948514526814,42.415028943219774
      -72.47826662061057,42.42796117185453
      -72.4870499082006,42.44089340033735
      -72.495835009234,42.4538256286682
      -72.50462192490754,42.466757856846996
    </coordinates>
  </LineString>
  <LineString>
    <coordinates>
      -72.46070548097848,42.40209671443316
      -72.46948514526814,42.415028943219774
      -72.47826662061057,42.42796117185453
      -72.4870499082006,42.44089340033735
      -72.495835009234,42.4538256286682
      -72.50462192490754,42.466757856846996
    </coordinates>
  </LineString>
  <LineString>
    <coordinates>
      -72.46070548097848,42.40209671443316
      -72.46948514526814,42.415028943219774
      -72.47826662061057,42.42796117185453
      -72.4870499082006,42.44089340033735
      -72.495835009234,42.4538256286682
      -72.50462192490754,42.466757856846996
    </coordinates>
  </LineString>
  <LineString>
    <coordinates>
      -72.46070548097848,42.40209671443316
      -72.46948514526814,42.415028943219774
      -72.47826662061057,42.42796117185453
      -72.4870499082006,42.44089340033735
      -72.495835009234,42.4538256286682
      -72.50462192490754,42.466757856846996
    </coordinates>
  </LineString>
  <LineString>
    <coordinates>
      -72.46070548097848,42.40209671443316
      -72.46948514526814,42.415028943219774
      -72.47826662061057,42.42796117185453
      -72.4870499082006,42.44089340033735
      -72.495835009234,42.4538256286682
      -72.50462192490754,42.466757856846996
    </coordinates>
  </LineString>
  <LineString>
    <coordinates>
      -72.46070548097848,42.40209671443316
      -72.46948514526814,42.415028943219774
      -72.47826662061057,42.42796117185453
      -72.4870499082006,42.44089340033735
      -72.495835009234,42.4538256286682
      -72.50462192490754,42.466757856846996
    </coordinates>
  </LineString>
  <LineString>
    <coordinates>
      -72.46070548097848,42.40209671443316
      -72.46948514526814,42.415028943219774
      -72.47826662061057,42.42796117185453
      -72.4870499082006,42.44089340033735
      -72.495835009234,42.4538256286682
      -72.50462192490754,42.466757856846996
    </coordinates>
  </LineString>
  <LineString>
    <coordinates>
      -72.46070548097848,42.40209671443316
      -72.46948514526814,42.415028943219774
      -72.47826662061057,42.42796117185453
      -72.4870499082006,42.44089340033735
      -72.495835009234,42.4538256286682
      -72.50462192490754,42.466757856846996
    </coordinates>
  </LineString>
  <LineString>
    <coordinates>
      -72.46070548097848,42.40209671443316
      -72.46948514526814,42.415028943219774
      -72.47826662061057,42.42796117185453
      -72.4870499082006,42.44089340033735
      -72.495835009234,42.4538256286682
      -72.50462192490754,42.466757856846996
    </coordinates>
  </LineString>
  <LineString>
    <coordinates>
      -72.46070548097848,42.40209671443316
      -72.46948514526814,42.415028943219774
      -72.47826662061057,42.42796117185453
      -72.4870499082006,42.44089340033735
      -72.495835009234,42.4538256286682
      -72.50462192490754,42.466757856846996
    </coordinates>
  </LineString>
  <LineString>
    <coordinates>
      -72.46070548097848,42.40209671443316
      -72.46948514526814,42.415028943219774
      -72.47826662061057,42.42796117185453
      -72.4870499082006,42.44089340033735
      -72.495835009234,42.4538256286682
      -72.50462192490754,42.466757856846996
    </coordinates>
  </LineString>
  <LineString>
    <coordinates>
      -72.46070548097848,42.40209671443316
      -72.46948514526814,42.415028943219774
      -72.47826662061057,42.42796117185453
      -72.4870499082006,42.44089340033735
      -72.495835009234,42.4538256286682
      -72.50462192490754,42.466757856846996
    </coordinates>
  </LineString>
  <LineString>
    <coordinates>
      -72.46070548097848,42.40209671443316
      -72.46948514526814,42.415028943219774
      -72.47826662061057,42.42796117185453
      -72.4870499082006,42.44089340033735
      -72.495835009234,42.4538256286682
      -72.50462192490754,42.466757856846996
    </coordinates>
  </LineString>
  <LineString>
    <coordinates>
      -72.46070548097848,42.40209671443316
      -72.46948514526814,42.415028943219774
      -72.47826662061057,42.42796117185453
      -72.4870499082006,42.44089340033735
      -72.495835009234,42.4538256286682
      -72.50462192490754,42.466757856846996
    </coordinates>
  </LineString>
  <LineString>
    <coordinates>
      -72.46070548097848,42.40209671443316
      -72.46948514526814,42.415028943219774
      -72.47826662061057,42.42796117185453
      -72.4870499082006,42.44089340033735
      -72.495835009234,42.4538256286682
      -72.50462192490754,42.466757856846996
    </coordinates>
  </LineString>
  <LineString>
    <coordinates>
      -72.46070548097848,42.40209671443316
      -72.46948514526814,42.415028943219774
      -72.47826662061057,42.42796117185453
      -72.4870499082006,42.44089340033735
      -72.495835009234,42.4538256286682
      -72.50462192490754,42.466757856846996
    </coordinates>
  </LineString>
  <LineString>
    <coordinates>
      -72.46070548097848,42.40209671443316
      -72.46948514526814,42.415028943219774
      -72.47826662061057,42.42796117185453
      -72.4870499082006,42.44089340033735
      -72.495835009234,42.4538256286682
      -72.50462192490754,42.466757856846996
    </coordinates>
  </LineString>
  <LineString>
    <coordinates>
      -72.46070548097848,42.40209671443316
      -72.46948514526814,42.415028943219774
      -72.47826662061057,42.42796117185453
      -72.4870499082006,42.44089340033735
      -72.495835009234,42.4538256286682
      -72.50462192490754,42.466757856846996
    </coordinates>
  </LineString>
  <LineString>
    <coordinates>
      -72.46070548097848,42.40209671443316
      -72.46948514526814,42.415028943219774
      -72.47826662061057,42.42796117185453
      -72.4870499082006,42.44089340033735
      -72.495835009234,42.4538256286682
      -72.50462192490754,42.466757856846996
    </coordinates>
  </LineString>
  <LineString>
    <coordinates>
      -72.46070548097848,42.40209671443316
      -72.46948514526814,42.415028943219774
      -72.47826662061057,42.42796117185453
      -72.4870499082006,42.44089340033735
      -72.495835009234,42.4538256286682
      -72.50462192490754,42.466757856846996
    </coordinates>
  </LineString>
  <LineString>
    <coordinates>
      -72.46070548097848,42.40209671443316
      -72.46948514526814,42.415028943219774
      -72.47826662061057,42.42796117185453
      -72.4870499082006,42.44089340033735
      -72.495835009234,42.4538256286682
      -72.50462192490754,42.466757856846996
    </coordinates>
  </LineString>
  <LineString>
    <coordinates>
      -72.46070548097848,42.40209671443316
      -72.46948514526814,42.415028943219774
      -72.47826662061057,42.42796117185453
      -72.4870499082006,42.44089340033735
      -72.495835009234,42.4538256286682
      -72.50462192490754,42.466757856846996
    </coordinates>
  </LineString>
  <LineString>
    <coordinates>
      -72.46070548097848,42.40209671443316
      -72.46948514526814,42.415028943219774
      -72.47826662061057,42.42796117185453
      -72.4870499082006,42.44089340033735
      -72.495835009234,42.4538256286682
      -72.50462192490754,42.466757856846996
    </coordinates>
  </LineString>
  <LineString>
    <coordinates>
      -72.46070548097848,42.40209671443316
      -72.46948514526814,42.415028943219774
      -72.47826662061057,42.42796117185453
      -72.4870499082006,42.44089340033735
      -72.495835009234,42.4538256286682
      -72.50462192490754,42.466757856846996
    </coordinates>
  </LineString>
  <LineString>
    <coordinates>
      -72.46070548097848,42.40209671443316
      -72.46948514526814,42.415028943219774
      -72.47826662061057,42.42796117185453
      -72.4870499082006,42.44089340033735
      -72.495835009234,42.4538256286682
      -72.50462192490754,42.466757856846996
    </coordinates>
  </LineString>
  <LineString>
    <coordinates>
      -72.46070548097848,42.40209671443316
      -72.46948514526814,42.415028943219774
      -72.47826662061057,42.42796117185453
      -72.4870499082006,42.44089340033735
      -72.495835009234,42.4538256286682
      -72.50462192490754,42.466757856846996
    </coordinates>
  </LineString>
  <LineString>
    <coordinates>
      -72.46070548097848,42.40209671443316
      -72.46948514526814,42.415028943219774
      -72.47826662061057,42.42796117185453
      -72.4870499082006,42.44089340033735
      -72.495835009234,42.4538256286682
      -72.50462192490754,42.466757856846996
    </coordinates>
  </LineString>
  <LineString>
    <coordinates>
      -72.46070548097848,42.40209671443316
      -72.46948514526814,42.415028943219774
      -72.47826662061057,42.42796117185453
      -72.4870499082006,42.44089340033735
      -72.495835009234,42.4538256286682
      -72.50462192490754,42.466757856846996
    </coordinates>
  </LineString>
  <LineString>
    <coordinates>
      -72.46070548097848,42.40209671443316
      -72.46948514526814,42.415028943219774
      -72.47826662061057,42.42796117185453
      -72.4870499082006,42.44089340033735
      -72.495835009234,42.4538256286682
      -72.50462192490754,42.466757856846996
    </coordinates>
  </LineString>
  <LineString>
    <coordinates>
      -72.46070548097848,42.40209671443316
      -72.46948514526814,42.415028943219774
      -72.47826662061057,42.42796117185453
      -72.4870499082006,42.44089340033735
      -72.495835009234,42.4538256286682
      -72.50462192490754,42.466757856846996
    </coordinates>
  </LineString>
  <LineString>
    <coordinates>
      -72.46070548097848,42.40209671443316
      -72.46948514526814,42.415028943219774
      -72.47826662061057,42.42796117185453
      -72.4870499082006,42.44089340033735
      -72.495835009234,42.4538256286682
      -72.50462192490754,42.466757856846996
    </coordinates>
  </LineString>
  <LineString>
    <coordinates>
      -72.46070548097848,42.40209671443316
      -72.46948514526814,42.415028943219774
      -72.47826662061057,42.42796117185453
      -72.4870499082006,42.44089340033735
      -72.495835009234,42.4538256286682
      -72.50462192490754,42.466757856846996
    </coordinates>
  </LineString>
  <LineString>
    <coordinates>
      -72.46070548097848,42.40209671443316
      -72.46948514526814,42.415028943219774
      -72.47826662061057,42.42796117185453
      -72.4870499082006,42.44089340033735
      -72.495835009234,42.4538256286682
      -72.50462192490754,42.466757856846996
    </coordinates>
  </LineString>
  <LineString>
    <coordinates>
      -72.46070548097848,42.40209671443316
      -72.46948514526814,42.415028943219774
      -72.47826662061057,42.42796117185453
      -72.4870499082006,42.44089340033735
      -72.495835009234,42.4538256286682
      -72.50462192490754,42.466757856846996
    </coordinates>
  </LineString>
  <LineString>
    <coordinates>
      -72.46070548097848,42.40209671443316
      -72.46948514526814,42.415028943219774
      -72.47826662061057,42.42796117185453
      -72.4870499082006,42.44089340033735
      -72.495835009234,42.4538256286682
      -72.50462192490754,42.466757856846996
    </coordinates>
  </LineString>
  <LineString>
    <coordinates>
      -72.46070548097848,42.40209671443316
      -72.46948514526814,42.415028943219774
      -72.47826662061057,42.42796117185453
      -72.4870499082006,42.44089340033735
      -72.495835009234,42.4538256286682
      -72.50462192490754,42.466757856846996
    </coordinates>
  </LineString>
  <LineString>
    <coordinates>
      -72.46070548097848,42.40209671443316
      -72.46948514526814,42.415028943219774
      -72.47826662061057,42.42796117185453
      -72.4870499082006,42.44089340033735
      -72.495835009234,42.4538256286682
      -72.50462192490754,42.466757856846996
    </coordinates>
  </LineString>
  <LineString>
    <coordinates>
      -72.46070548097848,42.40209671443316
      -72.46948514526814,42.415028943219774
      -72.47826662061057,42.42796117185453
      -72.4870499082006,42.44089340033735
      -72.495835009234,42.4538256286682
      -72.50462192490754,42.466757856846996
    </coordinates>
  </LineString>
  <LineString>
    <coordinates>
      -72.46070548097848,42.40209671443316
      -72.46948514526814,42.415028943219774
      -72.47826662061057,42.42796117185453
      -72.4870499082006,42.44089340033735
      -72.495835009234,42.4538256286682
      -72.50462192490754,42.466757856846996
    </coordinates>
  </LineString>
  <LineString>
    <coordinates>
      -72.46070548097848,42.40209671443316
      -72.46948514526814,42.415028943219774
      -72.47826662061057,42.42796117185453
      -72.4870499082006,42.44089340033735
      -72.495835009234,42.4538256286682
      -72.50462192490754,42.466757856846996
    </coordinates>
  </LineString>
  <LineString>
    <coordinates>
      -72.46070548097848,42.40209671443316
      -72.46948514526814,42.415028943219774
      -72.47826662061057,42.42796117185453
      -72.4870499082006,42.44089340033735
      -72.495835009234,42.4538256286682
      -72.50462192490754,42.466757856846996
    </coordinates>
  </LineString>
  <LineString>
    <coordinates>
      -72.46070548097848,42.40209671443316
      -72.46948514526814,42.415028943219774
      -72.47826662061057,42.42796117185453
      -72.4870499082006,42.44089340033735
      -72.495835009234,42.4538256286682
      -72.50462192490754,42.466757856846996
    </coordinates>
  </LineString>
  <LineString>
    <coordinates>
      -72.46070548097848,42.40209671443316
      -72.46948514526814,42.415028943219774
      -72.47826662061057,42.42796117185453
      -72.4870499082006,42.44089340033735
      -72.495835009234,42.4538256286682
      -72.50462192490754,42.466757856846996
    </coordinates>
  </LineString>
  <LineString>
    <coordinates>
      -72.46070548097848,42.40209671443316
      -72.46948514526814,42.415028943219774
      -72.47826662061057,42.42796117185453
      -72.4870499082006,42.44089340033735
      -72.495835009234,42.4538256286682
      -72.50462192490754,42.466757856846996
    </coordinates>
  </LineString>
  <LineString>
    <coordinates>
      -72.46070548097848,42.40209671443316
      -72.46948514526814,42.415028943219774
      -72.47826662061057,42.42796117185453
      -72.4870499082006,42.44089340033735
      -72.495835009234,42.4538256286682
      -72.50462192490754,42.466757856846996
    </coordinates>
  </LineString>
  <LineString>
    <coordinates>
      -72.46070548097848,42.40209671443316
      -72.46948514526814,42.415028943219774
      -72.47826662061057,42.42796117185453
      -72.4870499082006,42.44089340033735
      -72.495835009234,42.4538256286682
      -72.50462192490754,42.466757856846996
    </coordinates>
  </LineString>
  <LineString>
    <coordinates>
      -72.46070548097848,42.40209671443316
      -72.46948514526814,42.415028943219774
      -72.47826662061057,42.42796117185453
      -72.4870499082006,42.44089340033735
      -72.495835009234,42.4538256286682
      -72.50462192490754,42.466757856846996
    </coordinates>
  </LineString>
  <LineString>
    <coordinates>
      -72.46070548097848,42.40209671443316
      -72.46948514526814,42.415028943219774
      -72.47826662061057,42.42796117185453
      -72.4870499082006,42.44089340033735
      -72.495835009234,42.4538256286682
      -72.50462192490754,42.466757856846996
    </coordinates>
  </LineString>
  <LineString>
    <coordinates>
      -72.46070548097848,42.40209671443316
      -72.46948514526814,42.415028943219774
      -72.47826662061057,42.42796117185453
      -72.4870499082006,42.44089340033735
      -72.495835009234,42.4538256286682
      -72.50462192490754,42.466757856846996
    </coordinates>
  </LineString>
  <LineString>
    <coordinates>
      -72.46070548097848,42.40209671443316
      -72.46948514526814,42.415028943219774
      -72.47826662061057,42.42796117185453
      -72.4870499082006,42.44089340033735
      -72.495835009234,42.4538256286682
      -72.50462192490754,42.466757856846996
    </coordinates>
  </LineString>
  <LineString>
    <coordinates>
      -72.46070548097848,42.40209671443316
      -72.46948514526814,42.415028943219774
      -72.47826662061057,42.42796117185453
      -72.4870499082006,42.44089340033735
      -72.495835009234,42.4538256286682
      -72.50462192490754,42.466757856846996
    </coordinates>
  </LineString>
  <LineString>
    <coordinates>
      -72.46070548097848,42.40209671443316
      -72.46948514526814,42.415028943219774
      -72.47826662061057,42.42796117185453
      -72.4870499082006,42.44089340033735
      -72.495835009234,42.4538256286682
      -72.50462192490754,42.466757856846996
    </coordinates>
  </LineString>
  <LineString>
    <coordinates>
      -72.46070548097848,42.40209671443316
      -72.46948514526814,42.415028943219774
      -72.47826662061057,42.42796117185453
      -72.4870499082006,42.44089340033735
      -72.495835009234,42.4538256286682
      -72.50462192490754,42.466757856846996
    </coordinates>
  </LineString>
  <LineString>
    <coordinates>
      -72.46070548097848,42.40209671443316
      -72.46948514526814,42.415028943219774
      -72.47826662061057,42.42796117185453
      -72.4870499082006,42.44089340033735
      -72.495835009234,42.4538256286682
      -72.50462192490754,42.466757856846996
    </coordinates>
  </LineString>
  <LineString>
    <coordinates>
      -72.46070548097848,42.40209671443316
      -72.46948514526814,42.415028943219774
      -72.47826662061057,42.42796117185453
      -72.4870499082006,42.44089340033735
      -72.495835009234,42.4538256286682
      -72.50462192490754,42.466757856846996
    </coordinates>
  </LineString>
  <LineString>
    <coordinates>
      -72.46070548097848,42.40209671443316
      -72.46948514526814,42.415028943219774
      -72.47826662061057,42.42796117185453
      -72.4870499082006,42.44089340033735
      -72.495835009234,42.4538256286682
      -72.50462192490754,42.466757856846996
    </coordinates>
  </LineString>
  <LineString>
    <coordinates>
      -72.46070548097848,42.40209671443316
      -72.46948514526814,42.415028943219774
      -72.47826662061057,42.42796117185453
      -72.4870499082006,42.44089340033735
      -72.495835009234,42.4538256286682
      -72.50462192490754,42.466757856846996
    </coordinates>
  </LineString>
  <LineString>
    <coordinates>
      -72.46070548097848,42.40209671443316
      -72.46948514526814,42.415028943219774
      -72.47826662061057,42.42796117185453
      -72.4870499082006,42.44089340033735
      -72.495835009234,42.4538256286682
      -72.50462192490754,42.466757856846996
    </coordinates>
  </LineString>
  <LineString>
    <coordinates>
      -72.46070548097848,42.40209671443316
      -72.46948514526814,42.415028943219774
      -72.47826662061057,42.42796117185453
      -72.4870499082006,42.44089340033735
      -72.495835009234,42.4538256286682
      -72.50462192490754,42.466757856846996
    </coordinates>
  </LineString>
  <LineString>
    <coordinates>
      -72.46070548097848,42.40209671443316
      -72.46948514526814,42.415028943219774
      -72.47826662061057,42.42796117185453
      -72.4870499082006,42.44089340033735
      -72.495835009234,42.4538256286682
      -72.50462192490754,42.466757856846996
    </coordinates>
  </LineString>
  <LineString>
    <coordinates>
      -72.46070548097848,42.40209671443316
      -72.46948514526814,42.415028943219774
      -72.47826662061057,42.42796117185453
      -72.4870499082006,42.44089340033735
      -72.495835009234,42.4538256286682
      -72.50462192490754,42.466757856846996
    </coordinates>
  </LineString>
  <LineString>
    <coordinates>
      -72.46070548097848,42.40209671443316
      -72.46948514526814,42.415028943219774
      -72.47826662061057,42.42796117185453
      -72.4870499082006,42.44089340033735
      -72.495835009234,42.4538256286682
      -72.50462192490754,42.466757856846996
    </coordinates>
  </LineString>
  <LineString>
    <coordinates>
      -72.46070548097848,42.40209671443316
      -72.46948514526814,42.415028943219774
      -72.47826662061057,42.42796117185453
      -72.4870499082006,42.44089340033735
      -72.495835009234,42.4538256286682
      -72.50462192490754,42.466757856846996
    </coordinates>
  </LineString>
  <LineString>
    <coordinates>
      -72.46070548097848,42.40209671443316
      -72.46948514526814,42.415028943219774
      -72.47826662061057,42.42796117185453
      -72.4870499082006,42.44089340033735
      -72.495835009234,42.4538256286682
      -72.50462192490754,42.466757856846996
    </coordinates>
  </LineString>
  <LineString>
    <coordinates>
      -72.46070548097848,42.40209671443316
      -72.46948514526814,42.415028943219774
      -72.47826662061057,42.42796117185453
      -72.4870499082006,42.44089340033735
      -72.495835009234,42.4538256286682
      -72.50462192490754,42.466757856846996
    </coordinates>
  </LineString>
  <LineString>
    <coordinates>
      -72.46070548097848,42.40209671443316
      -72.46948514526814,42.415028943219774
      -72.47826662061057,42.42796117185453
      -72.4870499082006,42.44089340033735
      -72.495835009234,42.4538256286682
      -72.50462192490754,42.466757856846996
    </coordinates>
  </LineString>
  <LineString>
    <coordinates>
      -72.46070548097848,42.40209671443316
      -72.46948514526814,42.415028943219774
      -72.47826662061057,42.42796117185453
      -72.4870499082006,42.44089340033735
      -72.495835009234,42.4538256286682
      -72.50462192490754,42.466757856846996
    </coordinates>
  </LineString>
  <LineString>
    <coordinates>
      -72.46070548097848,42.40209671443316
      -72.46948514526814,42.415028943219774
      -72.47826662061057,42.42796117185453
      -72.4870499082006,42.44089340033735
      -72.495835009234,42.4538256286682
      -72.50462192490754,42.466757856846996
    </coordinates>
  </LineString>
  <LineString>
    <coordinates>
      -72.46070548097848,42.40209671443316
      -72.46948514526814,42.415028943219774
      -72.47826662061057,42.42796117185453
      -72.4870499082006,42.44089340033735
      -72.495835009234,42.4538256286682
      -72.50462192490754,42.466757856846996
    </coordinates>
  </LineString>
  <LineString>
    <coordinates>
      -72.46070548097848,42.40209671443316
      -72.46948514526814,42.415028943219774
      -72.47826662061057,42.42796117185453
      -72.4870499082006,42.44089340033735
      -72.495835009234,42.4538256286682
      -72.50462192490754,42.466757856846996
    </coordinates>
  </LineString>
  <LineString>
    <coordinates>
      -72.46070548097848,42.40209671443316
      -72.46948514526814,42.415028943219774
      -72.47826662061057,42.42796117185453
      -72.4870499082006,42.44089340033735
      -72.495835009234,42.4538256286682
      -72.50462192490754,42.466757856846996
    </coordinates>
  </LineString>
  <LineString>
    <coordinates>
      -72.46070548097848,42.40209671443316
      -72.46948514526814,42.415028943219774
      -72.47826662061057,42.42796117185453
      -72.4870499082006,42.44089340033735
      -72.495835009234,42.4538256286682
      -72.50462192490754,42.466757856846996
    </coordinates>
  </LineString>
  <LineString>
    <coordinates>
      -72.46070548097848,42.40209671443316
      -72.46948514526814,42.415028943219774
      -72.47826662061057,42.42796117185453
      -72.4870499082006,42.44089340033735
      -72.495835009234,42.4538256286682
      -72.50462192490754,42.466757856846996
    </coordinates>
  </LineString>
  <LineString>
    <coordinates>
      -72.46070548097848,42.40209671443316
      -72.46948514526814,42.415028943219774
      -72.47826662061057,42.42796117185453
      -72.4870499082006,42.44089340033735
      -72.495835009234,42.4538256286682
      -72.50462192490754,42.466757856846996
    </coordinates>
  </LineString>
  <LineString>
    <coordinates>
      -72.46070548097848,42.40209671443316
      -72.46948514526814,42.415028943219774
      -72.47826662061057,42.42796117185453
      -72.4870499082006,42.44089340033735
      -72.495835009234,42.4538256286682
      -72.50462192490754,42.466757856846996
    </coordinates>
  </LineString>
  <LineString>
    <coordinates>
      -72.46070548097848,42.40209671443316
      -72.46948514526814,42.415028943219774
      -72.47826662061057,42.42796117185453
      -72.4870499082006,42.44089340033735
      -72.495835009234,42.4538256286682
      -72.50462192490754,42.466757856846996
    </coordinates>
  </LineString>
</MultiGeometry></Placemark>
</Document>
</kml>
