<?xml version="1.0" encoding="UTF-8"?>
<kml xmlns="http://www.opengis.net/kml/2.2">
<Document>
<Folder>
<name>Distribution without searches</name>
<GroundOverlay>
  <visibility>0</visibility>
  <drawOrder>0</drawOrder>
  <name>2025-03-22T00:17:26-04:00</name>
  <Icon>
    <href>SearchScenario/MotionOnly.png</href>
  </Icon>
  <altitude>0.0</altitude>
  <LatLonBox>
    <north>42.44623848042148</north>
    <south>42.26642482091075</south>
    <east>-72.34417853573356</east>
    <west>-72.5875088035224</west>
    <rotation>0.0</rotation>
  </LatLonBox>
  <TimeSpan>
    <begin>2025-03-22T00:17:26-04:00</begin>
    <end>2025-03-22T01:17:26-04:00</end>
  </TimeSpan>
</GroundOverlay>

</Folder>
<Folder>
<name>Distribution with searches</name>
<GroundOverlay>
  <visibility>0</visibility>
  <drawOrder>0</drawOrder>
  <name>2025-03-22T00:17:26-04:00</name>
  <Icon>
    <href>SearchScenario/AllData.png</href>
  </Icon>
  <altitude>0.0</altitude>
  <LatLonBox>
    <north>42.44623848042148</north>
    <south>42.26642482091075</south>
    <east>-72.34417853573356</east>
    <west>-72.5875088035224</west>
    <rotation>0.0</rotation>
  </LatLonBox>
  <TimeSpan>
    <begin>2025-03-22T00:17:26-04:00</begin>
    <end>2025-03-22T01:17:26-04:00</end>
  </TimeSpan>
</GroundOverlay>

</Folder>
</Document>
</kml>
