<?xml version="1.0" encoding="UTF-8"?>
<kml xmlns="http://www.opengis.net/kml/2.2">
<Document>
<GroundOverlay>
  <visibility>0</visibility>
  <drawOrder>0</drawOrder>
  <name>Elevation.png</name>
  <Icon>
    <href>Elevation.png</href>
  </Icon>
  <altitude>0.0</altitude>
  <LatLonBox>
    <north>42.44623848042148</north>
    <south>42.26642482091075</south>
    <east>-72.34417853573356</east>
    <west>-72.5875088035224</west>
    <rotation>0.0</rotation>
  </LatLonBox>
</GroundOverlay>

</Document>
</kml>
