<?xml version="1.0" encoding="UTF-8"?>
<kml xmlns="http://www.opengis.net/kml/2.2">
<Document>
<Placemark>
<drawOrder>1</drawOrder>
<visibility>0</visibility>
<Style><PolyStyle><fill>0</fill><outline>1</outline></PolyStyle><LineStyle><color>ff000000</color><width>3</width></LineStyle></Style>
<Polygon>
  <extrude>0</extrude>
  <altitudeMode>clampToGround</altitudeMode>
  <outerBoundaryIs><LinearRing><coordinates>
-72.59362945578981,42.47785504360357
-72.33270600553548,42.47785504360357
-72.33270600553548,42.28543291418077
-72.59362945578981,42.28543291418077
-72.59362945578981,42.47785504360357
  </coordinates></LinearRing></outerBoundaryIs>
</Polygon>


</Placemark>

</Document>
</kml>
