<?xml version="1.0" encoding="UTF-8"?>
<kml xmlns="http://www.opengis.net/kml/2.2">
<Document>
<Placemark>
<drawOrder>4</drawOrder>
  <visibility>0</visibility>
<Style><LineStyle><color>ffffffff</color><width>1</width></LineStyle></Style>
<MultiGeometry>
  <LineString>
    <coordinates>
      -72.4264242231563,42.40206033064152
      -72.4352038823524,42.41499255942857
      -72.44398535259785,42.42792478806375
      -72.4527686350876,42.440857016547
      -72.46155373101735,42.45378924487827
      -72.47034064158382,42.4667214730575
    </coordinates>
  </LineString>
  <LineString>
    <coordinates>
      -72.4264242231563,42.40206033064152
      -72.4352038823524,42.41499255942857
      -72.44398535259785,42.42792478806375
      -72.4527686350876,42.440857016547
      -72.46155373101735,42.45378924487827
      -72.47034064158382,42.4667214730575
    </coordinates>
  </LineString>
  <LineString>
    <coordinates>
      -72.4264242231563,42.40206033064152
      -72.4352038823524,42.41499255942857
      -72.44398535259785,42.42792478806375
      -72.4527686350876,42.440857016547
      -72.46155373101735,42.45378924487827
      -72.47034064158382,42.4667214730575
    </coordinates>
  </LineString>
  <LineString>
    <coordinates>
      -72.4264242231563,42.40206033064152
      -72.4352038823524,42.41499255942857
      -72.44398535259785,42.42792478806375
      -72.4527686350876,42.440857016547
      -72.46155373101735,42.45378924487827
      -72.47034064158382,42.4667214730575
    </coordinates>
  </LineString>
  <LineString>
    <coordinates>
      -72.4264242231563,42.40206033064152
      -72.4352038823524,42.41499255942857
      -72.44398535259785,42.42792478806375
      -72.4527686350876,42.440857016547
      -72.46155373101735,42.45378924487827
      -72.47034064158382,42.4667214730575
    </coordinates>
  </LineString>
  <LineString>
    <coordinates>
      -72.4264242231563,42.40206033064152
      -72.4352038823524,42.41499255942857
      -72.44398535259785,42.42792478806375
      -72.4527686350876,42.440857016547
      -72.46155373101735,42.45378924487827
      -72.47034064158382,42.4667214730575
    </coordinates>
  </LineString>
  <LineString>
    <coordinates>
      -72.4264242231563,42.40206033064152
      -72.4352038823524,42.41499255942857
      -72.44398535259785,42.42792478806375
      -72.4527686350876,42.440857016547
      -72.46155373101735,42.45378924487827
      -72.47034064158382,42.4667214730575
    </coordinates>
  </LineString>
  <LineString>
    <coordinates>
      -72.4264242231563,42.40206033064152
      -72.4352038823524,42.41499255942857
      -72.44398535259785,42.42792478806375
      -72.4527686350876,42.440857016547
      -72.46155373101735,42.45378924487827
      -72.47034064158382,42.4667214730575
    </coordinates>
  </LineString>
  <LineString>
    <coordinates>
      -72.4264242231563,42.40206033064152
      -72.4352038823524,42.41499255942857
      -72.44398535259785,42.42792478806375
      -72.4527686350876,42.440857016547
      -72.46155373101735,42.45378924487827
      -72.47034064158382,42.4667214730575
    </coordinates>
  </LineString>
  <LineString>
    <coordinates>
      -72.4264242231563,42.40206033064152
      -72.4352038823524,42.41499255942857
      -72.44398535259785,42.42792478806375
      -72.4527686350876,42.440857016547
      -72.46155373101735,42.45378924487827
      -72.47034064158382,42.4667214730575
    </coordinates>
  </LineString>
  <LineString>
    <coordinates>
      -72.4264242231563,42.40206033064152
      -72.4352038823524,42.41499255942857
      -72.44398535259785,42.42792478806375
      -72.4527686350876,42.440857016547
      -72.46155373101735,42.45378924487827
      -72.47034064158382,42.4667214730575
    </coordinates>
  </LineString>
  <LineString>
    <coordinates>
      -72.4264242231563,42.40206033064152
      -72.4352038823524,42.41499255942857
      -72.44398535259785,42.42792478806375
      -72.4527686350876,42.440857016547
      -72.46155373101735,42.45378924487827
      -72.47034064158382,42.4667214730575
    </coordinates>
  </LineString>
  <LineString>
    <coordinates>
      -72.4264242231563,42.40206033064152
      -72.4352038823524,42.41499255942857
      -72.44398535259785,42.42792478806375
      -72.4527686350876,42.440857016547
      -72.46155373101735,42.45378924487827
      -72.47034064158382,42.4667214730575
    </coordinates>
  </LineString>
  <LineString>
    <coordinates>
      -72.4264242231563,42.40206033064152
      -72.4352038823524,42.41499255942857
      -72.44398535259785,42.42792478806375
      -72.4527686350876,42.440857016547
      -72.46155373101735,42.45378924487827
      -72.47034064158382,42.4667214730575
    </coordinates>
  </LineString>
  <LineString>
    <coordinates>
      -72.4264242231563,42.40206033064152
      -72.4352038823524,42.41499255942857
      -72.44398535259785,42.42792478806375
      -72.4527686350876,42.440857016547
      -72.46155373101735,42.45378924487827
      -72.47034064158382,42.4667214730575
    </coordinates>
  </LineString>
  <LineString>
    <coordinates>
      -72.4264242231563,42.40206033064152
      -72.4352038823524,42.41499255942857
      -72.44398535259785,42.42792478806375
      -72.4527686350876,42.440857016547
      -72.46155373101735,42.45378924487827
      -72.47034064158382,42.4667214730575
    </coordinates>
  </LineString>
  <LineString>
    <coordinates>
      -72.4264242231563,42.40206033064152
      -72.4352038823524,42.41499255942857
      -72.44398535259785,42.42792478806375
      -72.4527686350876,42.440857016547
      -72.46155373101735,42.45378924487827
      -72.47034064158382,42.4667214730575
    </coordinates>
  </LineString>
  <LineString>
    <coordinates>
      -72.4264242231563,42.40206033064152
      -72.4352038823524,42.41499255942857
      -72.44398535259785,42.42792478806375
      -72.4527686350876,42.440857016547
      -72.46155373101735,42.45378924487827
      -72.47034064158382,42.4667214730575
    </coordinates>
  </LineString>
  <LineString>
    <coordinates>
      -72.4264242231563,42.40206033064152
      -72.4352038823524,42.41499255942857
      -72.44398535259785,42.42792478806375
      -72.4527686350876,42.440857016547
      -72.46155373101735,42.45378924487827
      -72.47034064158382,42.4667214730575
    </coordinates>
  </LineString>
  <LineString>
    <coordinates>
      -72.4264242231563,42.40206033064152
      -72.4352038823524,42.41499255942857
      -72.44398535259785,42.42792478806375
      -72.4527686350876,42.440857016547
      -72.46155373101735,42.45378924487827
      -72.47034064158382,42.4667214730575
    </coordinates>
  </LineString>
  <LineString>
    <coordinates>
      -72.4264242231563,42.40206033064152
      -72.4352038823524,42.41499255942857
      -72.44398535259785,42.42792478806375
      -72.4527686350876,42.440857016547
      -72.46155373101735,42.45378924487827
      -72.47034064158382,42.4667214730575
    </coordinates>
  </LineString>
  <LineString>
    <coordinates>
      -72.4264242231563,42.40206033064152
      -72.4352038823524,42.41499255942857
      -72.44398535259785,42.42792478806375
      -72.4527686350876,42.440857016547
      -72.46155373101735,42.45378924487827
      -72.47034064158382,42.4667214730575
    </coordinates>
  </LineString>
  <LineString>
    <coordinates>
      -72.4264242231563,42.40206033064152
      -72.4352038823524,42.41499255942857
      -72.44398535259785,42.42792478806375
      -72.4527686350876,42.440857016547
      -72.46155373101735,42.45378924487827
      -72.47034064158382,42.4667214730575
    </coordinates>
  </LineString>
  <LineString>
    <coordinates>
      -72.4264242231563,42.40206033064152
      -72.4352038823524,42.41499255942857
      -72.44398535259785,42.42792478806375
      -72.4527686350876,42.440857016547
      -72.46155373101735,42.45378924487827
      -72.47034064158382,42.4667214730575
    </coordinates>
  </LineString>
  <LineString>
    <coordinates>
      -72.4264242231563,42.40206033064152
      -72.4352038823524,42.41499255942857
      -72.44398535259785,42.42792478806375
      -72.4527686350876,42.440857016547
      -72.46155373101735,42.45378924487827
      -72.47034064158382,42.4667214730575
    </coordinates>
  </LineString>
  <LineString>
    <coordinates>
      -72.4264242231563,42.40206033064152
      -72.4352038823524,42.41499255942857
      -72.44398535259785,42.42792478806375
      -72.4527686350876,42.440857016547
      -72.46155373101735,42.45378924487827
      -72.47034064158382,42.4667214730575
    </coordinates>
  </LineString>
  <LineString>
    <coordinates>
      -72.4264242231563,42.40206033064152
      -72.4352038823524,42.41499255942857
      -72.44398535259785,42.42792478806375
      -72.4527686350876,42.440857016547
      -72.46155373101735,42.45378924487827
      -72.47034064158382,42.4667214730575
    </coordinates>
  </LineString>
  <LineString>
    <coordinates>
      -72.4264242231563,42.40206033064152
      -72.4352038823524,42.41499255942857
      -72.44398535259785,42.42792478806375
      -72.4527686350876,42.440857016547
      -72.46155373101735,42.45378924487827
      -72.47034064158382,42.4667214730575
    </coordinates>
  </LineString>
  <LineString>
    <coordinates>
      -72.4264242231563,42.40206033064152
      -72.4352038823524,42.41499255942857
      -72.44398535259785,42.42792478806375
      -72.4527686350876,42.440857016547
      -72.46155373101735,42.45378924487827
      -72.47034064158382,42.4667214730575
    </coordinates>
  </LineString>
  <LineString>
    <coordinates>
      -72.4264242231563,42.40206033064152
      -72.4352038823524,42.41499255942857
      -72.44398535259785,42.42792478806375
      -72.4527686350876,42.440857016547
      -72.46155373101735,42.45378924487827
      -72.47034064158382,42.4667214730575
    </coordinates>
  </LineString>
  <LineString>
    <coordinates>
      -72.4264242231563,42.40206033064152
      -72.4352038823524,42.41499255942857
      -72.44398535259785,42.42792478806375
      -72.4527686350876,42.440857016547
      -72.46155373101735,42.45378924487827
      -72.47034064158382,42.4667214730575
    </coordinates>
  </LineString>
  <LineString>
    <coordinates>
      -72.4264242231563,42.40206033064152
      -72.4352038823524,42.41499255942857
      -72.44398535259785,42.42792478806375
      -72.4527686350876,42.440857016547
      -72.46155373101735,42.45378924487827
      -72.47034064158382,42.4667214730575
    </coordinates>
  </LineString>
  <LineString>
    <coordinates>
      -72.4264242231563,42.40206033064152
      -72.4352038823524,42.41499255942857
      -72.44398535259785,42.42792478806375
      -72.4527686350876,42.440857016547
      -72.46155373101735,42.45378924487827
      -72.47034064158382,42.4667214730575
    </coordinates>
  </LineString>
  <LineString>
    <coordinates>
      -72.4264242231563,42.40206033064152
      -72.4352038823524,42.41499255942857
      -72.44398535259785,42.42792478806375
      -72.4527686350876,42.440857016547
      -72.46155373101735,42.45378924487827
      -72.47034064158382,42.4667214730575
    </coordinates>
  </LineString>
  <LineString>
    <coordinates>
      -72.4264242231563,42.40206033064152
      -72.4352038823524,42.41499255942857
      -72.44398535259785,42.42792478806375
      -72.4527686350876,42.440857016547
      -72.46155373101735,42.45378924487827
      -72.47034064158382,42.4667214730575
    </coordinates>
  </LineString>
  <LineString>
    <coordinates>
      -72.4264242231563,42.40206033064152
      -72.4352038823524,42.41499255942857
      -72.44398535259785,42.42792478806375
      -72.4527686350876,42.440857016547
      -72.46155373101735,42.45378924487827
      -72.47034064158382,42.4667214730575
    </coordinates>
  </LineString>
  <LineString>
    <coordinates>
      -72.4264242231563,42.40206033064152
      -72.4352038823524,42.41499255942857
      -72.44398535259785,42.42792478806375
      -72.4527686350876,42.440857016547
      -72.46155373101735,42.45378924487827
      -72.47034064158382,42.4667214730575
    </coordinates>
  </LineString>
  <LineString>
    <coordinates>
      -72.4264242231563,42.40206033064152
      -72.4352038823524,42.41499255942857
      -72.44398535259785,42.42792478806375
      -72.4527686350876,42.440857016547
      -72.46155373101735,42.45378924487827
      -72.47034064158382,42.4667214730575
    </coordinates>
  </LineString>
  <LineString>
    <coordinates>
      -72.4264242231563,42.40206033064152
      -72.4352038823524,42.41499255942857
      -72.44398535259785,42.42792478806375
      -72.4527686350876,42.440857016547
      -72.46155373101735,42.45378924487827
      -72.47034064158382,42.4667214730575
    </coordinates>
  </LineString>
  <LineString>
    <coordinates>
      -72.4264242231563,42.40206033064152
      -72.4352038823524,42.41499255942857
      -72.44398535259785,42.42792478806375
      -72.4527686350876,42.440857016547
      -72.46155373101735,42.45378924487827
      -72.47034064158382,42.4667214730575
    </coordinates>
  </LineString>
  <LineString>
    <coordinates>
      -72.4264242231563,42.40206033064152
      -72.4352038823524,42.41499255942857
      -72.44398535259785,42.42792478806375
      -72.4527686350876,42.440857016547
      -72.46155373101735,42.45378924487827
      -72.47034064158382,42.4667214730575
    </coordinates>
  </LineString>
  <LineString>
    <coordinates>
      -72.4264242231563,42.40206033064152
      -72.4352038823524,42.41499255942857
      -72.44398535259785,42.42792478806375
      -72.4527686350876,42.440857016547
      -72.46155373101735,42.45378924487827
      -72.47034064158382,42.4667214730575
    </coordinates>
  </LineString>
  <LineString>
    <coordinates>
      -72.4264242231563,42.40206033064152
      -72.4352038823524,42.41499255942857
      -72.44398535259785,42.42792478806375
      -72.4527686350876,42.440857016547
      -72.46155373101735,42.45378924487827
      -72.47034064158382,42.4667214730575
    </coordinates>
  </LineString>
  <LineString>
    <coordinates>
      -72.4264242231563,42.40206033064152
      -72.4352038823524,42.41499255942857
      -72.44398535259785,42.42792478806375
      -72.4527686350876,42.440857016547
      -72.46155373101735,42.45378924487827
      -72.47034064158382,42.4667214730575
    </coordinates>
  </LineString>
  <LineString>
    <coordinates>
      -72.4264242231563,42.40206033064152
      -72.4352038823524,42.41499255942857
      -72.44398535259785,42.42792478806375
      -72.4527686350876,42.440857016547
      -72.46155373101735,42.45378924487827
      -72.47034064158382,42.4667214730575
    </coordinates>
  </LineString>
  <LineString>
    <coordinates>
      -72.4264242231563,42.40206033064152
      -72.4352038823524,42.41499255942857
      -72.44398535259785,42.42792478806375
      -72.4527686350876,42.440857016547
      -72.46155373101735,42.45378924487827
      -72.47034064158382,42.4667214730575
    </coordinates>
  </LineString>
  <LineString>
    <coordinates>
      -72.4264242231563,42.40206033064152
      -72.4352038823524,42.41499255942857
      -72.44398535259785,42.42792478806375
      -72.4527686350876,42.440857016547
      -72.46155373101735,42.45378924487827
      -72.47034064158382,42.4667214730575
    </coordinates>
  </LineString>
  <LineString>
    <coordinates>
      -72.4264242231563,42.40206033064152
      -72.4352038823524,42.41499255942857
      -72.44398535259785,42.42792478806375
      -72.4527686350876,42.440857016547
      -72.46155373101735,42.45378924487827
      -72.47034064158382,42.4667214730575
    </coordinates>
  </LineString>
  <LineString>
    <coordinates>
      -72.4264242231563,42.40206033064152
      -72.4352038823524,42.41499255942857
      -72.44398535259785,42.42792478806375
      -72.4527686350876,42.440857016547
      -72.46155373101735,42.45378924487827
      -72.47034064158382,42.4667214730575
    </coordinates>
  </LineString>
  <LineString>
    <coordinates>
      -72.4264242231563,42.40206033064152
      -72.4352038823524,42.41499255942857
      -72.44398535259785,42.42792478806375
      -72.4527686350876,42.440857016547
      -72.46155373101735,42.45378924487827
      -72.47034064158382,42.4667214730575
    </coordinates>
  </LineString>
  <LineString>
    <coordinates>
      -72.4264242231563,42.40206033064152
      -72.4352038823524,42.41499255942857
      -72.44398535259785,42.42792478806375
      -72.4527686350876,42.440857016547
      -72.46155373101735,42.45378924487827
      -72.47034064158382,42.4667214730575
    </coordinates>
  </LineString>
  <LineString>
    <coordinates>
      -72.4264242231563,42.40206033064152
      -72.4352038823524,42.41499255942857
      -72.44398535259785,42.42792478806375
      -72.4527686350876,42.440857016547
      -72.46155373101735,42.45378924487827
      -72.47034064158382,42.4667214730575
    </coordinates>
  </LineString>
  <LineString>
    <coordinates>
      -72.4264242231563,42.40206033064152
      -72.4352038823524,42.41499255942857
      -72.44398535259785,42.42792478806375
      -72.4527686350876,42.440857016547
      -72.46155373101735,42.45378924487827
      -72.47034064158382,42.4667214730575
    </coordinates>
  </LineString>
  <LineString>
    <coordinates>
      -72.4264242231563,42.40206033064152
      -72.4352038823524,42.41499255942857
      -72.44398535259785,42.42792478806375
      -72.4527686350876,42.440857016547
      -72.46155373101735,42.45378924487827
      -72.47034064158382,42.4667214730575
    </coordinates>
  </LineString>
  <LineString>
    <coordinates>
      -72.4264242231563,42.40206033064152
      -72.4352038823524,42.41499255942857
      -72.44398535259785,42.42792478806375
      -72.4527686350876,42.440857016547
      -72.46155373101735,42.45378924487827
      -72.47034064158382,42.4667214730575
    </coordinates>
  </LineString>
  <LineString>
    <coordinates>
      -72.4264242231563,42.40206033064152
      -72.4352038823524,42.41499255942857
      -72.44398535259785,42.42792478806375
      -72.4527686350876,42.440857016547
      -72.46155373101735,42.45378924487827
      -72.47034064158382,42.4667214730575
    </coordinates>
  </LineString>
  <LineString>
    <coordinates>
      -72.4264242231563,42.40206033064152
      -72.4352038823524,42.41499255942857
      -72.44398535259785,42.42792478806375
      -72.4527686350876,42.440857016547
      -72.46155373101735,42.45378924487827
      -72.47034064158382,42.4667214730575
    </coordinates>
  </LineString>
  <LineString>
    <coordinates>
      -72.4264242231563,42.40206033064152
      -72.4352038823524,42.41499255942857
      -72.44398535259785,42.42792478806375
      -72.4527686350876,42.440857016547
      -72.46155373101735,42.45378924487827
      -72.47034064158382,42.4667214730575
    </coordinates>
  </LineString>
  <LineString>
    <coordinates>
      -72.4264242231563,42.40206033064152
      -72.4352038823524,42.41499255942857
      -72.44398535259785,42.42792478806375
      -72.4527686350876,42.440857016547
      -72.46155373101735,42.45378924487827
      -72.47034064158382,42.4667214730575
    </coordinates>
  </LineString>
  <LineString>
    <coordinates>
      -72.4264242231563,42.40206033064152
      -72.4352038823524,42.41499255942857
      -72.44398535259785,42.42792478806375
      -72.4527686350876,42.440857016547
      -72.46155373101735,42.45378924487827
      -72.47034064158382,42.4667214730575
    </coordinates>
  </LineString>
  <LineString>
    <coordinates>
      -72.4264242231563,42.40206033064152
      -72.4352038823524,42.41499255942857
      -72.44398535259785,42.42792478806375
      -72.4527686350876,42.440857016547
      -72.46155373101735,42.45378924487827
      -72.47034064158382,42.4667214730575
    </coordinates>
  </LineString>
  <LineString>
    <coordinates>
      -72.4264242231563,42.40206033064152
      -72.4352038823524,42.41499255942857
      -72.44398535259785,42.42792478806375
      -72.4527686350876,42.440857016547
      -72.46155373101735,42.45378924487827
      -72.47034064158382,42.4667214730575
    </coordinates>
  </LineString>
  <LineString>
    <coordinates>
      -72.4264242231563,42.40206033064152
      -72.4352038823524,42.41499255942857
      -72.44398535259785,42.42792478806375
      -72.4527686350876,42.440857016547
      -72.46155373101735,42.45378924487827
      -72.47034064158382,42.4667214730575
    </coordinates>
  </LineString>
  <LineString>
    <coordinates>
      -72.4264242231563,42.40206033064152
      -72.4352038823524,42.41499255942857
      -72.44398535259785,42.42792478806375
      -72.4527686350876,42.440857016547
      -72.46155373101735,42.45378924487827
      -72.47034064158382,42.4667214730575
    </coordinates>
  </LineString>
  <LineString>
    <coordinates>
      -72.4264242231563,42.40206033064152
      -72.4352038823524,42.41499255942857
      -72.44398535259785,42.42792478806375
      -72.4527686350876,42.440857016547
      -72.46155373101735,42.45378924487827
      -72.47034064158382,42.4667214730575
    </coordinates>
  </LineString>
  <LineString>
    <coordinates>
      -72.4264242231563,42.40206033064152
      -72.4352038823524,42.41499255942857
      -72.44398535259785,42.42792478806375
      -72.4527686350876,42.440857016547
      -72.46155373101735,42.45378924487827
      -72.47034064158382,42.4667214730575
    </coordinates>
  </LineString>
  <LineString>
    <coordinates>
      -72.4264242231563,42.40206033064152
      -72.4352038823524,42.41499255942857
      -72.44398535259785,42.42792478806375
      -72.4527686350876,42.440857016547
      -72.46155373101735,42.45378924487827
      -72.47034064158382,42.4667214730575
    </coordinates>
  </LineString>
  <LineString>
    <coordinates>
      -72.4264242231563,42.40206033064152
      -72.4352038823524,42.41499255942857
      -72.44398535259785,42.42792478806375
      -72.4527686350876,42.440857016547
      -72.46155373101735,42.45378924487827
      -72.47034064158382,42.4667214730575
    </coordinates>
  </LineString>
  <LineString>
    <coordinates>
      -72.4264242231563,42.40206033064152
      -72.4352038823524,42.41499255942857
      -72.44398535259785,42.42792478806375
      -72.4527686350876,42.440857016547
      -72.46155373101735,42.45378924487827
      -72.47034064158382,42.4667214730575
    </coordinates>
  </LineString>
  <LineString>
    <coordinates>
      -72.4264242231563,42.40206033064152
      -72.4352038823524,42.41499255942857
      -72.44398535259785,42.42792478806375
      -72.4527686350876,42.440857016547
      -72.46155373101735,42.45378924487827
      -72.47034064158382,42.4667214730575
    </coordinates>
  </LineString>
  <LineString>
    <coordinates>
      -72.4264242231563,42.40206033064152
      -72.4352038823524,42.41499255942857
      -72.44398535259785,42.42792478806375
      -72.4527686350876,42.440857016547
      -72.46155373101735,42.45378924487827
      -72.47034064158382,42.4667214730575
    </coordinates>
  </LineString>
  <LineString>
    <coordinates>
      -72.4264242231563,42.40206033064152
      -72.4352038823524,42.41499255942857
      -72.44398535259785,42.42792478806375
      -72.4527686350876,42.440857016547
      -72.46155373101735,42.45378924487827
      -72.47034064158382,42.4667214730575
    </coordinates>
  </LineString>
  <LineString>
    <coordinates>
      -72.4264242231563,42.40206033064152
      -72.4352038823524,42.41499255942857
      -72.44398535259785,42.42792478806375
      -72.4527686350876,42.440857016547
      -72.46155373101735,42.45378924487827
      -72.47034064158382,42.4667214730575
    </coordinates>
  </LineString>
  <LineString>
    <coordinates>
      -72.4264242231563,42.40206033064152
      -72.4352038823524,42.41499255942857
      -72.44398535259785,42.42792478806375
      -72.4527686350876,42.440857016547
      -72.46155373101735,42.45378924487827
      -72.47034064158382,42.4667214730575
    </coordinates>
  </LineString>
  <LineString>
    <coordinates>
      -72.4264242231563,42.40206033064152
      -72.4352038823524,42.41499255942857
      -72.44398535259785,42.42792478806375
      -72.4527686350876,42.440857016547
      -72.46155373101735,42.45378924487827
      -72.47034064158382,42.4667214730575
    </coordinates>
  </LineString>
  <LineString>
    <coordinates>
      -72.4264242231563,42.40206033064152
      -72.4352038823524,42.41499255942857
      -72.44398535259785,42.42792478806375
      -72.4527686350876,42.440857016547
      -72.46155373101735,42.45378924487827
      -72.47034064158382,42.4667214730575
    </coordinates>
  </LineString>
  <LineString>
    <coordinates>
      -72.4264242231563,42.40206033064152
      -72.4352038823524,42.41499255942857
      -72.44398535259785,42.42792478806375
      -72.4527686350876,42.440857016547
      -72.46155373101735,42.45378924487827
      -72.47034064158382,42.4667214730575
    </coordinates>
  </LineString>
  <LineString>
    <coordinates>
      -72.4264242231563,42.40206033064152
      -72.4352038823524,42.41499255942857
      -72.44398535259785,42.42792478806375
      -72.4527686350876,42.440857016547
      -72.46155373101735,42.45378924487827
      -72.47034064158382,42.4667214730575
    </coordinates>
  </LineString>
  <LineString>
    <coordinates>
      -72.4264242231563,42.40206033064152
      -72.4352038823524,42.41499255942857
      -72.44398535259785,42.42792478806375
      -72.4527686350876,42.440857016547
      -72.46155373101735,42.45378924487827
      -72.47034064158382,42.4667214730575
    </coordinates>
  </LineString>
  <LineString>
    <coordinates>
      -72.4264242231563,42.40206033064152
      -72.4352038823524,42.41499255942857
      -72.44398535259785,42.42792478806375
      -72.4527686350876,42.440857016547
      -72.46155373101735,42.45378924487827
      -72.47034064158382,42.4667214730575
    </coordinates>
  </LineString>
  <LineString>
    <coordinates>
      -72.4264242231563,42.40206033064152
      -72.4352038823524,42.41499255942857
      -72.44398535259785,42.42792478806375
      -72.4527686350876,42.440857016547
      -72.46155373101735,42.45378924487827
      -72.47034064158382,42.4667214730575
    </coordinates>
  </LineString>
  <LineString>
    <coordinates>
      -72.4264242231563,42.40206033064152
      -72.4352038823524,42.41499255942857
      -72.44398535259785,42.42792478806375
      -72.4527686350876,42.440857016547
      -72.46155373101735,42.45378924487827
      -72.47034064158382,42.4667214730575
    </coordinates>
  </LineString>
  <LineString>
    <coordinates>
      -72.4264242231563,42.40206033064152
      -72.4352038823524,42.41499255942857
      -72.44398535259785,42.42792478806375
      -72.4527686350876,42.440857016547
      -72.46155373101735,42.45378924487827
      -72.47034064158382,42.4667214730575
    </coordinates>
  </LineString>
  <LineString>
    <coordinates>
      -72.4264242231563,42.40206033064152
      -72.4352038823524,42.41499255942857
      -72.44398535259785,42.42792478806375
      -72.4527686350876,42.440857016547
      -72.46155373101735,42.45378924487827
      -72.47034064158382,42.4667214730575
    </coordinates>
  </LineString>
  <LineString>
    <coordinates>
      -72.4264242231563,42.40206033064152
      -72.4352038823524,42.41499255942857
      -72.44398535259785,42.42792478806375
      -72.4527686350876,42.440857016547
      -72.46155373101735,42.45378924487827
      -72.47034064158382,42.4667214730575
    </coordinates>
  </LineString>
  <LineString>
    <coordinates>
      -72.4264242231563,42.40206033064152
      -72.4352038823524,42.41499255942857
      -72.44398535259785,42.42792478806375
      -72.4527686350876,42.440857016547
      -72.46155373101735,42.45378924487827
      -72.47034064158382,42.4667214730575
    </coordinates>
  </LineString>
  <LineString>
    <coordinates>
      -72.4264242231563,42.40206033064152
      -72.4352038823524,42.41499255942857
      -72.44398535259785,42.42792478806375
      -72.4527686350876,42.440857016547
      -72.46155373101735,42.45378924487827
      -72.47034064158382,42.4667214730575
    </coordinates>
  </LineString>
  <LineString>
    <coordinates>
      -72.4264242231563,42.40206033064152
      -72.4352038823524,42.41499255942857
      -72.44398535259785,42.42792478806375
      -72.4527686350876,42.440857016547
      -72.46155373101735,42.45378924487827
      -72.47034064158382,42.4667214730575
    </coordinates>
  </LineString>
  <LineString>
    <coordinates>
      -72.4264242231563,42.40206033064152
      -72.4352038823524,42.41499255942857
      -72.44398535259785,42.42792478806375
      -72.4527686350876,42.440857016547
      -72.46155373101735,42.45378924487827
      -72.47034064158382,42.4667214730575
    </coordinates>
  </LineString>
  <LineString>
    <coordinates>
      -72.4264242231563,42.40206033064152
      -72.4352038823524,42.41499255942857
      -72.44398535259785,42.42792478806375
      -72.4527686350876,42.440857016547
      -72.46155373101735,42.45378924487827
      -72.47034064158382,42.4667214730575
    </coordinates>
  </LineString>
  <LineString>
    <coordinates>
      -72.4264242231563,42.40206033064152
      -72.4352038823524,42.41499255942857
      -72.44398535259785,42.42792478806375
      -72.4527686350876,42.440857016547
      -72.46155373101735,42.45378924487827
      -72.47034064158382,42.4667214730575
    </coordinates>
  </LineString>
  <LineString>
    <coordinates>
      -72.4264242231563,42.40206033064152
      -72.4352038823524,42.41499255942857
      -72.44398535259785,42.42792478806375
      -72.4527686350876,42.440857016547
      -72.46155373101735,42.45378924487827
      -72.47034064158382,42.4667214730575
    </coordinates>
  </LineString>
  <LineString>
    <coordinates>
      -72.4264242231563,42.40206033064152
      -72.4352038823524,42.41499255942857
      -72.44398535259785,42.42792478806375
      -72.4527686350876,42.440857016547
      -72.46155373101735,42.45378924487827
      -72.47034064158382,42.4667214730575
    </coordinates>
  </LineString>
  <LineString>
    <coordinates>
      -72.4264242231563,42.40206033064152
      -72.4352038823524,42.41499255942857
      -72.44398535259785,42.42792478806375
      -72.4527686350876,42.440857016547
      -72.46155373101735,42.45378924487827
      -72.47034064158382,42.4667214730575
    </coordinates>
  </LineString>
  <LineString>
    <coordinates>
      -72.4264242231563,42.40206033064152
      -72.4352038823524,42.41499255942857
      -72.44398535259785,42.42792478806375
      -72.4527686350876,42.440857016547
      -72.46155373101735,42.45378924487827
      -72.47034064158382,42.4667214730575
    </coordinates>
  </LineString>
  <LineString>
    <coordinates>
      -72.4264242231563,42.40206033064152
      -72.4352038823524,42.41499255942857
      -72.44398535259785,42.42792478806375
      -72.4527686350876,42.440857016547
      -72.46155373101735,42.45378924487827
      -72.47034064158382,42.4667214730575
    </coordinates>
  </LineString>
  <LineString>
    <coordinates>
      -72.4264242231563,42.40206033064152
      -72.4352038823524,42.41499255942857
      -72.44398535259785,42.42792478806375
      -72.4527686350876,42.440857016547
      -72.46155373101735,42.45378924487827
      -72.47034064158382,42.4667214730575
    </coordinates>
  </LineString>
  <LineString>
    <coordinates>
      -72.4264242231563,42.40206033064152
      -72.4352038823524,42.41499255942857
      -72.44398535259785,42.42792478806375
      -72.4527686350876,42.440857016547
      -72.46155373101735,42.45378924487827
      -72.47034064158382,42.4667214730575
    </coordinates>
  </LineString>
  <LineString>
    <coordinates>
      -72.4264242231563,42.40206033064152
      -72.4352038823524,42.41499255942857
      -72.44398535259785,42.42792478806375
      -72.4527686350876,42.440857016547
      -72.46155373101735,42.45378924487827
      -72.47034064158382,42.4667214730575
    </coordinates>
  </LineString>
  <LineString>
    <coordinates>
      -72.4264242231563,42.40206033064152
      -72.4352038823524,42.41499255942857
      -72.44398535259785,42.42792478806375
      -72.4527686350876,42.440857016547
      -72.46155373101735,42.45378924487827
      -72.47034064158382,42.4667214730575
    </coordinates>
  </LineString>
</MultiGeometry></Placemark>
</Document>
</kml>
