<?xml version="1.0" encoding="UTF-8"?>
<kml xmlns="http://www.opengis.net/kml/2.2">
<Document>
<GroundOverlay>
  <visibility>0</visibility>
  <drawOrder>0</drawOrder>
  <name>Landcover.png</name>
  <Icon>
    <href>Landcover.png</href>
  </Icon>
  <altitude>0.0</altitude>
  <LatLonBox>
    <north>42.47956477388391</north>
    <south>42.29975111437318</south>
    <east>-72.34482220764163</east>
    <west>-72.5904570397689</west>
    <rotation>0.0</rotation>
  </LatLonBox>
</GroundOverlay>

</Document>
</kml>
