<?xml version="1.0" encoding="UTF-8"?>
<kml xmlns="http://www.opengis.net/kml/2.2">
<Document>
<GroundOverlay>
  <visibility>0</visibility>
  <drawOrder>0</drawOrder>
  <name>Elevation.png</name>
  <Icon>
    <href>Elevation.png</href>
  </Icon>
  <altitude>0.0</altitude>
  <LatLonBox>
    <north>42.47785504360357</north>
    <south>42.28543291418077</south>
    <east>-72.33270600553547</east>
    <west>-72.59362945578981</west>
    <rotation>0.0</rotation>
  </LatLonBox>
</GroundOverlay>

</Document>
</kml>
