<?xml version="1.0" encoding="UTF-8"?>
<kml xmlns="http://www.opengis.net/kml/2.2">
<Document>
<Placemark>
<drawOrder>4</drawOrder>
  <visibility>0</visibility>
<Style><LineStyle><color>ffffffff</color><width>1</width></LineStyle></Style>
<MultiGeometry>
  <LineString>
    <coordinates>
      -72.46445525949555,42.382282527988174
      -72.52263708302513,42.38839341872027
      -72.58082457143287,42.39450430630138
    </coordinates>
  </LineString>
  <LineString>
    <coordinates>
      -72.46445525949555,42.382282527988174
      -72.52263708302513,42.38839341872027
      -72.58082457143287,42.39450430630138
    </coordinates>
  </LineString>
  <LineString>
    <coordinates>
      -72.46445525949555,42.382282527988174
      -72.52263708302513,42.38839341872027
      -72.58082457143287,42.39450430630138
    </coordinates>
  </LineString>
  <LineString>
    <coordinates>
      -72.46445525949555,42.382282527988174
      -72.52263708302513,42.38839341872027
      -72.58082457143287,42.39450430630138
    </coordinates>
  </LineString>
  <LineString>
    <coordinates>
      -72.46445525949555,42.382282527988174
      -72.52263708302513,42.38839341872027
      -72.58082457143287,42.39450430630138
    </coordinates>
  </LineString>
  <LineString>
    <coordinates>
      -72.46445525949555,42.382282527988174
      -72.52263708302513,42.38839341872027
      -72.58082457143287,42.39450430630138
    </coordinates>
  </LineString>
  <LineString>
    <coordinates>
      -72.46445525949555,42.382282527988174
      -72.52263708302513,42.38839341872027
      -72.58082457143287,42.39450430630138
    </coordinates>
  </LineString>
  <LineString>
    <coordinates>
      -72.46445525949555,42.382282527988174
      -72.52263708302513,42.38839341872027
      -72.58082457143287,42.39450430630138
    </coordinates>
  </LineString>
  <LineString>
    <coordinates>
      -72.46445525949555,42.382282527988174
      -72.52263708302513,42.38839341872027
      -72.58082457143287,42.39450430630138
    </coordinates>
  </LineString>
  <LineString>
    <coordinates>
      -72.46445525949555,42.382282527988174
      -72.52263708302513,42.38839341872027
      -72.58082457143287,42.39450430630138
    </coordinates>
  </LineString>
  <LineString>
    <coordinates>
      -72.46445525949555,42.382282527988174
      -72.52263708302513,42.38839341872027
      -72.58082457143287,42.39450430630138
    </coordinates>
  </LineString>
  <LineString>
    <coordinates>
      -72.46445525949555,42.382282527988174
      -72.52263708302513,42.38839341872027
      -72.58082457143287,42.39450430630138
    </coordinates>
  </LineString>
  <LineString>
    <coordinates>
      -72.46445525949555,42.382282527988174
      -72.52263708302513,42.38839341872027
      -72.58082457143287,42.39450430630138
    </coordinates>
  </LineString>
  <LineString>
    <coordinates>
      -72.46445525949555,42.382282527988174
      -72.52263708302513,42.38839341872027
      -72.58082457143287,42.39450430630138
    </coordinates>
  </LineString>
  <LineString>
    <coordinates>
      -72.46445525949555,42.382282527988174
      -72.52263708302513,42.38839341872027
      -72.58082457143287,42.39450430630138
    </coordinates>
  </LineString>
  <LineString>
    <coordinates>
      -72.46445525949555,42.382282527988174
      -72.52263708302513,42.38839341872027
      -72.58082457143287,42.39450430630138
    </coordinates>
  </LineString>
  <LineString>
    <coordinates>
      -72.46445525949555,42.382282527988174
      -72.52263708302513,42.38839341872027
      -72.58082457143287,42.39450430630138
    </coordinates>
  </LineString>
  <LineString>
    <coordinates>
      -72.46445525949555,42.382282527988174
      -72.52263708302513,42.38839341872027
      -72.58082457143287,42.39450430630138
    </coordinates>
  </LineString>
  <LineString>
    <coordinates>
      -72.46445525949555,42.382282527988174
      -72.52263708302513,42.38839341872027
      -72.58082457143287,42.39450430630138
    </coordinates>
  </LineString>
  <LineString>
    <coordinates>
      -72.46445525949555,42.382282527988174
      -72.52263708302513,42.38839341872027
      -72.58082457143287,42.39450430630138
    </coordinates>
  </LineString>
  <LineString>
    <coordinates>
      -72.46445525949555,42.382282527988174
      -72.52263708302513,42.38839341872027
      -72.58082457143287,42.39450430630138
    </coordinates>
  </LineString>
  <LineString>
    <coordinates>
      -72.46445525949555,42.382282527988174
      -72.52263708302513,42.38839341872027
      -72.58082457143287,42.39450430630138
    </coordinates>
  </LineString>
  <LineString>
    <coordinates>
      -72.46445525949555,42.382282527988174
      -72.52263708302513,42.38839341872027
      -72.58082457143287,42.39450430630138
    </coordinates>
  </LineString>
  <LineString>
    <coordinates>
      -72.46445525949555,42.382282527988174
      -72.52263708302513,42.38839341872027
      -72.58082457143287,42.39450430630138
    </coordinates>
  </LineString>
  <LineString>
    <coordinates>
      -72.46445525949555,42.382282527988174
      -72.52263708302513,42.38839341872027
      -72.58082457143287,42.39450430630138
    </coordinates>
  </LineString>
  <LineString>
    <coordinates>
      -72.46445525949555,42.382282527988174
      -72.52263708302513,42.38839341872027
      -72.58082457143287,42.39450430630138
    </coordinates>
  </LineString>
  <LineString>
    <coordinates>
      -72.46445525949555,42.382282527988174
      -72.52263708302513,42.38839341872027
      -72.58082457143287,42.39450430630138
    </coordinates>
  </LineString>
  <LineString>
    <coordinates>
      -72.46445525949555,42.382282527988174
      -72.52263708302513,42.38839341872027
      -72.58082457143287,42.39450430630138
    </coordinates>
  </LineString>
  <LineString>
    <coordinates>
      -72.46445525949555,42.382282527988174
      -72.52263708302513,42.38839341872027
      -72.58082457143287,42.39450430630138
    </coordinates>
  </LineString>
  <LineString>
    <coordinates>
      -72.46445525949555,42.382282527988174
      -72.52263708302513,42.38839341872027
      -72.58082457143287,42.39450430630138
    </coordinates>
  </LineString>
  <LineString>
    <coordinates>
      -72.46445525949555,42.382282527988174
      -72.52263708302513,42.38839341872027
      -72.58082457143287,42.39450430630138
    </coordinates>
  </LineString>
  <LineString>
    <coordinates>
      -72.46445525949555,42.382282527988174
      -72.52263708302513,42.38839341872027
      -72.58082457143287,42.39450430630138
    </coordinates>
  </LineString>
  <LineString>
    <coordinates>
      -72.46445525949555,42.382282527988174
      -72.52263708302513,42.38839341872027
      -72.58082457143287,42.39450430630138
    </coordinates>
  </LineString>
  <LineString>
    <coordinates>
      -72.46445525949555,42.382282527988174
      -72.52263708302513,42.38839341872027
      -72.58082457143287,42.39450430630138
    </coordinates>
  </LineString>
  <LineString>
    <coordinates>
      -72.46445525949555,42.382282527988174
      -72.52263708302513,42.38839341872027
      -72.58082457143287,42.39450430630138
    </coordinates>
  </LineString>
  <LineString>
    <coordinates>
      -72.46445525949555,42.382282527988174
      -72.52263708302513,42.38839341872027
      -72.58082457143287,42.39450430630138
    </coordinates>
  </LineString>
  <LineString>
    <coordinates>
      -72.46445525949555,42.382282527988174
      -72.52263708302513,42.38839341872027
      -72.58082457143287,42.39450430630138
    </coordinates>
  </LineString>
  <LineString>
    <coordinates>
      -72.46445525949555,42.382282527988174
      -72.52263708302513,42.38839341872027
      -72.58082457143287,42.39450430630138
    </coordinates>
  </LineString>
  <LineString>
    <coordinates>
      -72.46445525949555,42.382282527988174
      -72.52263708302513,42.38839341872027
      -72.58082457143287,42.39450430630138
    </coordinates>
  </LineString>
  <LineString>
    <coordinates>
      -72.46445525949555,42.382282527988174
      -72.52263708302513,42.38839341872027
      -72.58082457143287,42.39450430630138
    </coordinates>
  </LineString>
  <LineString>
    <coordinates>
      -72.46445525949555,42.382282527988174
      -72.52263708302513,42.38839341872027
      -72.58082457143287,42.39450430630138
    </coordinates>
  </LineString>
  <LineString>
    <coordinates>
      -72.46445525949555,42.382282527988174
      -72.52263708302513,42.38839341872027
      -72.58082457143287,42.39450430630138
    </coordinates>
  </LineString>
  <LineString>
    <coordinates>
      -72.46445525949555,42.382282527988174
      -72.52263708302513,42.38839341872027
      -72.58082457143287,42.39450430630138
    </coordinates>
  </LineString>
  <LineString>
    <coordinates>
      -72.46445525949555,42.382282527988174
      -72.52263708302513,42.38839341872027
      -72.58082457143287,42.39450430630138
    </coordinates>
  </LineString>
  <LineString>
    <coordinates>
      -72.46445525949555,42.382282527988174
      -72.52263708302513,42.38839341872027
      -72.58082457143287,42.39450430630138
    </coordinates>
  </LineString>
  <LineString>
    <coordinates>
      -72.46445525949555,42.382282527988174
      -72.52263708302513,42.38839341872027
      -72.58082457143287,42.39450430630138
    </coordinates>
  </LineString>
  <LineString>
    <coordinates>
      -72.46445525949555,42.382282527988174
      -72.52263708302513,42.38839341872027
      -72.58082457143287,42.39450430630138
    </coordinates>
  </LineString>
  <LineString>
    <coordinates>
      -72.46445525949555,42.382282527988174
      -72.52263708302513,42.38839341872027
      -72.58082457143287,42.39450430630138
    </coordinates>
  </LineString>
  <LineString>
    <coordinates>
      -72.46445525949555,42.382282527988174
      -72.52263708302513,42.38839341872027
      -72.58082457143287,42.39450430630138
    </coordinates>
  </LineString>
  <LineString>
    <coordinates>
      -72.46445525949555,42.382282527988174
      -72.52263708302513,42.38839341872027
      -72.58082457143287,42.39450430630138
    </coordinates>
  </LineString>
  <LineString>
    <coordinates>
      -72.46445525949555,42.382282527988174
      -72.52263708302513,42.38839341872027
      -72.58082457143287,42.39450430630138
    </coordinates>
  </LineString>
  <LineString>
    <coordinates>
      -72.46445525949555,42.382282527988174
      -72.52263708302513,42.38839341872027
      -72.58082457143287,42.39450430630138
    </coordinates>
  </LineString>
  <LineString>
    <coordinates>
      -72.46445525949555,42.382282527988174
      -72.52263708302513,42.38839341872027
      -72.58082457143287,42.39450430630138
    </coordinates>
  </LineString>
  <LineString>
    <coordinates>
      -72.46445525949555,42.382282527988174
      -72.52263708302513,42.38839341872027
      -72.58082457143287,42.39450430630138
    </coordinates>
  </LineString>
  <LineString>
    <coordinates>
      -72.46445525949555,42.382282527988174
      -72.52263708302513,42.38839341872027
      -72.58082457143287,42.39450430630138
    </coordinates>
  </LineString>
  <LineString>
    <coordinates>
      -72.46445525949555,42.382282527988174
      -72.52263708302513,42.38839341872027
      -72.58082457143287,42.39450430630138
    </coordinates>
  </LineString>
  <LineString>
    <coordinates>
      -72.46445525949555,42.382282527988174
      -72.52263708302513,42.38839341872027
      -72.58082457143287,42.39450430630138
    </coordinates>
  </LineString>
  <LineString>
    <coordinates>
      -72.46445525949555,42.382282527988174
      -72.52263708302513,42.38839341872027
      -72.58082457143287,42.39450430630138
    </coordinates>
  </LineString>
  <LineString>
    <coordinates>
      -72.46445525949555,42.382282527988174
      -72.52263708302513,42.38839341872027
      -72.58082457143287,42.39450430630138
    </coordinates>
  </LineString>
  <LineString>
    <coordinates>
      -72.46445525949555,42.382282527988174
      -72.52263708302513,42.38839341872027
      -72.58082457143287,42.39450430630138
    </coordinates>
  </LineString>
  <LineString>
    <coordinates>
      -72.46445525949555,42.382282527988174
      -72.52263708302513,42.38839341872027
      -72.58082457143287,42.39450430630138
    </coordinates>
  </LineString>
  <LineString>
    <coordinates>
      -72.46445525949555,42.382282527988174
      -72.52263708302513,42.38839341872027
      -72.58082457143287,42.39450430630138
    </coordinates>
  </LineString>
  <LineString>
    <coordinates>
      -72.46445525949555,42.382282527988174
      -72.52263708302513,42.38839341872027
      -72.58082457143287,42.39450430630138
    </coordinates>
  </LineString>
  <LineString>
    <coordinates>
      -72.46445525949555,42.382282527988174
      -72.52263708302513,42.38839341872027
      -72.58082457143287,42.39450430630138
    </coordinates>
  </LineString>
  <LineString>
    <coordinates>
      -72.46445525949555,42.382282527988174
      -72.52263708302513,42.38839341872027
      -72.58082457143287,42.39450430630138
    </coordinates>
  </LineString>
  <LineString>
    <coordinates>
      -72.46445525949555,42.382282527988174
      -72.52263708302513,42.38839341872027
      -72.58082457143287,42.39450430630138
    </coordinates>
  </LineString>
  <LineString>
    <coordinates>
      -72.46445525949555,42.382282527988174
      -72.52263708302513,42.38839341872027
      -72.58082457143287,42.39450430630138
    </coordinates>
  </LineString>
  <LineString>
    <coordinates>
      -72.46445525949555,42.382282527988174
      -72.52263708302513,42.38839341872027
      -72.58082457143287,42.39450430630138
    </coordinates>
  </LineString>
  <LineString>
    <coordinates>
      -72.46445525949555,42.382282527988174
      -72.52263708302513,42.38839341872027
      -72.58082457143287,42.39450430630138
    </coordinates>
  </LineString>
  <LineString>
    <coordinates>
      -72.46445525949555,42.382282527988174
      -72.52263708302513,42.38839341872027
      -72.58082457143287,42.39450430630138
    </coordinates>
  </LineString>
  <LineString>
    <coordinates>
      -72.46445525949555,42.382282527988174
      -72.52263708302513,42.38839341872027
      -72.58082457143287,42.39450430630138
    </coordinates>
  </LineString>
  <LineString>
    <coordinates>
      -72.46445525949555,42.382282527988174
      -72.52263708302513,42.38839341872027
      -72.58082457143287,42.39450430630138
    </coordinates>
  </LineString>
  <LineString>
    <coordinates>
      -72.46445525949555,42.382282527988174
      -72.52263708302513,42.38839341872027
      -72.58082457143287,42.39450430630138
    </coordinates>
  </LineString>
  <LineString>
    <coordinates>
      -72.46445525949555,42.382282527988174
      -72.52263708302513,42.38839341872027
      -72.58082457143287,42.39450430630138
    </coordinates>
  </LineString>
  <LineString>
    <coordinates>
      -72.46445525949555,42.382282527988174
      -72.52263708302513,42.38839341872027
      -72.58082457143287,42.39450430630138
    </coordinates>
  </LineString>
  <LineString>
    <coordinates>
      -72.46445525949555,42.382282527988174
      -72.52263708302513,42.38839341872027
      -72.58082457143287,42.39450430630138
    </coordinates>
  </LineString>
  <LineString>
    <coordinates>
      -72.46445525949555,42.382282527988174
      -72.52263708302513,42.38839341872027
      -72.58082457143287,42.39450430630138
    </coordinates>
  </LineString>
  <LineString>
    <coordinates>
      -72.46445525949555,42.382282527988174
      -72.52263708302513,42.38839341872027
      -72.58082457143287,42.39450430630138
    </coordinates>
  </LineString>
  <LineString>
    <coordinates>
      -72.46445525949555,42.382282527988174
      -72.52263708302513,42.38839341872027
      -72.58082457143287,42.39450430630138
    </coordinates>
  </LineString>
  <LineString>
    <coordinates>
      -72.46445525949555,42.382282527988174
      -72.52263708302513,42.38839341872027
      -72.58082457143287,42.39450430630138
    </coordinates>
  </LineString>
  <LineString>
    <coordinates>
      -72.46445525949555,42.382282527988174
      -72.52263708302513,42.38839341872027
      -72.58082457143287,42.39450430630138
    </coordinates>
  </LineString>
  <LineString>
    <coordinates>
      -72.46445525949555,42.382282527988174
      -72.52263708302513,42.38839341872027
      -72.58082457143287,42.39450430630138
    </coordinates>
  </LineString>
  <LineString>
    <coordinates>
      -72.46445525949555,42.382282527988174
      -72.52263708302513,42.38839341872027
      -72.58082457143287,42.39450430630138
    </coordinates>
  </LineString>
  <LineString>
    <coordinates>
      -72.46445525949555,42.382282527988174
      -72.52263708302513,42.38839341872027
      -72.58082457143287,42.39450430630138
    </coordinates>
  </LineString>
  <LineString>
    <coordinates>
      -72.46445525949555,42.382282527988174
      -72.52263708302513,42.38839341872027
      -72.58082457143287,42.39450430630138
    </coordinates>
  </LineString>
  <LineString>
    <coordinates>
      -72.46445525949555,42.382282527988174
      -72.52263708302513,42.38839341872027
      -72.58082457143287,42.39450430630138
    </coordinates>
  </LineString>
  <LineString>
    <coordinates>
      -72.46445525949555,42.382282527988174
      -72.52263708302513,42.38839341872027
      -72.58082457143287,42.39450430630138
    </coordinates>
  </LineString>
  <LineString>
    <coordinates>
      -72.46445525949555,42.382282527988174
      -72.52263708302513,42.38839341872027
      -72.58082457143287,42.39450430630138
    </coordinates>
  </LineString>
  <LineString>
    <coordinates>
      -72.46445525949555,42.382282527988174
      -72.52263708302513,42.38839341872027
      -72.58082457143287,42.39450430630138
    </coordinates>
  </LineString>
  <LineString>
    <coordinates>
      -72.46445525949555,42.382282527988174
      -72.52263708302513,42.38839341872027
      -72.58082457143287,42.39450430630138
    </coordinates>
  </LineString>
  <LineString>
    <coordinates>
      -72.46445525949555,42.382282527988174
      -72.52263708302513,42.38839341872027
      -72.58082457143287,42.39450430630138
    </coordinates>
  </LineString>
  <LineString>
    <coordinates>
      -72.46445525949555,42.382282527988174
      -72.52263708302513,42.38839341872027
      -72.58082457143287,42.39450430630138
    </coordinates>
  </LineString>
  <LineString>
    <coordinates>
      -72.46445525949555,42.382282527988174
      -72.52263708302513,42.38839341872027
      -72.58082457143287,42.39450430630138
    </coordinates>
  </LineString>
  <LineString>
    <coordinates>
      -72.46445525949555,42.382282527988174
      -72.52263708302513,42.38839341872027
      -72.58082457143287,42.39450430630138
    </coordinates>
  </LineString>
  <LineString>
    <coordinates>
      -72.46445525949555,42.382282527988174
      -72.52263708302513,42.38839341872027
      -72.58082457143287,42.39450430630138
    </coordinates>
  </LineString>
  <LineString>
    <coordinates>
      -72.46445525949555,42.382282527988174
      -72.52263708302513,42.38839341872027
      -72.58082457143287,42.39450430630138
    </coordinates>
  </LineString>
  <LineString>
    <coordinates>
      -72.46445525949555,42.382282527988174
      -72.52263708302513,42.38839341872027
      -72.58082457143287,42.39450430630138
    </coordinates>
  </LineString>
  <LineString>
    <coordinates>
      -72.46445525949555,42.382282527988174
      -72.52263708302513,42.38839341872027
      -72.58082457143287,42.39450430630138
    </coordinates>
  </LineString>
  <LineString>
    <coordinates>
      -72.46445525949555,42.382282527988174
      -72.52263708302513,42.38839341872027
      -72.58082457143287,42.39450430630138
    </coordinates>
  </LineString>
  <LineString>
    <coordinates>
      -72.46445525949555,42.382282527988174
      -72.52263708302513,42.38839341872027
      -72.58082457143287,42.39450430630138
    </coordinates>
  </LineString>
</MultiGeometry></Placemark>
</Document>
</kml>
