<?xml version="1.0" encoding="UTF-8"?>
<kml xmlns="http://www.opengis.net/kml/2.2">
<Document>
<Placemark>
<drawOrder>1</drawOrder>
<visibility>0</visibility>
<Style><PolyStyle><fill>0</fill><outline>1</outline></PolyStyle><LineStyle><color>ff000000</color><width>3</width></LineStyle></Style>
<Polygon>
  <extrude>0</extrude>
  <altitudeMode>clampToGround</altitudeMode>
  <outerBoundaryIs><LinearRing><coordinates>
-72.60066766822129,42.45801725667586
-72.35729177905216,42.45801725667586
-72.35729177905216,42.27820359716514
-72.60066766822129,42.27820359716514
-72.60066766822129,42.45801725667586
  </coordinates></LinearRing></outerBoundaryIs>
</Polygon>


</Placemark>

</Document>
</kml>
