<?xml version="1.0" encoding="UTF-8"?>
<kml xmlns="http://www.opengis.net/kml/2.2">
<Document>
<Folder>
<name>Distribution without searches</name>
<GroundOverlay>
  <visibility>0</visibility>
  <drawOrder>0</drawOrder>
  <name>2025-12-18T15:04:50-05:00</name>
  <Icon>
    <href>SearchScenario/MotionOnly.png</href>
  </Icon>
  <altitude>0.0</altitude>
  <LatLonBox>
    <north>42.45801725667586</north>
    <south>42.27820359716514</south>
    <east>-72.35729177905216</east>
    <west>-72.60066766822129</west>
    <rotation>0.0</rotation>
  </LatLonBox>
  <TimeSpan>
    <begin>2025-12-18T15:04:50-05:00</begin>
    <end>2025-12-18T16:04:50-05:00</end>
  </TimeSpan>
</GroundOverlay>

</Folder>
<Folder>
<name>Distribution with searches</name>
<GroundOverlay>
  <visibility>0</visibility>
  <drawOrder>0</drawOrder>
  <name>2025-12-18T15:04:50-05:00</name>
  <Icon>
    <href>SearchScenario/AllData.png</href>
  </Icon>
  <altitude>0.0</altitude>
  <LatLonBox>
    <north>42.45801725667586</north>
    <south>42.27820359716514</south>
    <east>-72.35729177905216</east>
    <west>-72.60066766822129</west>
    <rotation>0.0</rotation>
  </LatLonBox>
  <TimeSpan>
    <begin>2025-12-18T15:04:50-05:00</begin>
    <end>2025-12-18T16:04:50-05:00</end>
  </TimeSpan>
</GroundOverlay>

</Folder>
</Document>
</kml>
