<?xml version="1.0" encoding="UTF-8"?>
<kml xmlns="http://www.opengis.net/kml/2.2">
<Document>
<GroundOverlay>
  <visibility>0</visibility>
  <drawOrder>0</drawOrder>
  <name>Elevation.png</name>
  <Icon>
    <href>Elevation.png</href>
  </Icon>
  <altitude>0.0</altitude>
  <LatLonBox>
    <north>42.495206324472356</north>
    <south>42.315392664961635</south>
    <east>-72.34986905253349</east>
    <west>-72.59338916175635</west>
    <rotation>0.0</rotation>
  </LatLonBox>
</GroundOverlay>

</Document>
</kml>
